{
"type": "FeatureCollection",
"name": "tracks",
"crs": { "type": "name", "properties": { "name": "urn:ogc:def:crs:OGC:1.3:CRS84" } },
"bbox": [ 23.6138173006475, 46.7588361818343, 23.6311327200383, 46.7671558912843 ],                                                
"features": [
{ "type": "Feature", "properties": { "name": "Cluj-Napoca Running", "type": "running" }, "bbox": [ 23.613817300647497, 46.75883618183434, 23.631132720038295, 46.767155891284347 ], "geometry": { "type": "MultiLineString", "coordinates": [ [ [ 23.613817300647497, 46.75883618183434 ], [ 23.613817300647497, 46.75883618183434 ], [ 23.613866167142987, 46.758864261209965 ], [ 23.613904053345323, 46.758880522102118 ], [ 23.613964654505253, 46.758898543193936 ], [ 23.613997930660844, 46.758929220959544 ], [ 23.614005306735635, 46.758949924260378 ], [ 23.614021483808756, 46.758952522650361 ], [ 23.61404076218605, 46.758961072191596 ], [ 23.614076804369688, 46.758987726643682 ], [ 23.614109493792057, 46.759015722200274 ], [ 23.614133968949318, 46.759039275348186 ], [ 23.614163137972355, 46.759065175428987 ], [ 23.614193396642804, 46.759082106873393 ], [ 23.614219967275858, 46.759097445756197 ], [ 23.614247795194387, 46.759112952277064 ], [ 23.614290542900562, 46.759130051359534 ], [ 23.614320633932948, 46.759148659184575 ], [ 23.614343265071511, 46.759166931733489 ], [ 23.614368326961994, 46.759188557043672 ], [ 23.614399926736951, 46.759207583963871 ], [ 23.614427419379354, 46.759225018322468 ], [ 23.61445365473628, 46.759248487651348 ], [ 23.614485086873174, 46.759271202608943 ], [ 23.614511489868164, 46.759286373853683 ], [ 23.614545436576009, 46.75930037163198 ], [ 23.614583741873503, 46.759302550926805 ], [ 23.614614168182015, 46.759309088811278 ], [ 23.614637386053801, 46.759326858446002 ], [ 23.61466471105814, 46.759348064661026 ], [ 23.614688599482179, 46.759365666657686 ], [ 23.614703267812729, 46.759382849559188 ], [ 23.614723468199372, 46.759406989440322 ], [ 23.614753056317568, 46.759427525103092 ], [ 23.614779375493526, 46.759442863985896 ], [ 23.614806951954961, 46.759458621963859 ], [ 23.614838635548949, 46.759477900341153 ], [ 23.614855902269483, 46.759497430175543 ], [ 23.614883730188012, 46.759515786543489 ], [ 23.614910217002034, 46.759535148739815 ], [ 23.614936452358961, 46.759551493450999 ], [ 23.614961178973317, 46.759564485400915 ], [ 23.615005686879158, 46.759579572826624 ], [ 23.615034436807036, 46.75960086286068 ], [ 23.615055978298187, 46.759622655808926 ], [ 23.615077016875148, 46.759649477899075 ], [ 23.615088164806366, 46.759675042703748 ], [ 23.615092439576983, 46.759697590023279 ], [ 23.615096881985664, 46.759722819551826 ], [ 23.615100486204028, 46.759752323850989 ], [ 23.61510006710887, 46.759781409054995 ], [ 23.615098223090172, 46.759806890040636 ], [ 23.615112975239754, 46.759837986901402 ], [ 23.615142395719886, 46.759866569191217 ], [ 23.615167457610369, 46.759886350482702 ], [ 23.615196123719215, 46.759909065440297 ], [ 23.615229399874806, 46.759935636073351 ], [ 23.61525546759367, 46.759956758469343 ], [ 23.615280278027058, 46.759975533932447 ], [ 23.615321349352598, 46.759993638843298 ], [ 23.615364683791995, 46.760007301345468 ], [ 23.615398379042745, 46.760018281638622 ], [ 23.615440288558602, 46.76003186032176 ], [ 23.615479012951255, 46.76004602573812 ], [ 23.615492256358266, 46.76006312482059 ], [ 23.615506505593657, 46.760090282186866 ], [ 23.61551103182137, 46.760116685181856 ], [ 23.61551446840167, 46.760139735415578 ], [ 23.615516982972622, 46.760166389867663 ], [ 23.615530645474792, 46.760194133967161 ], [ 23.615534668788314, 46.760220872238278 ], [ 23.615536093711853, 46.760245766490698 ], [ 23.615538273006678, 46.760275354608893 ], [ 23.615534584969282, 46.76030988804996 ], [ 23.615527292713523, 46.760335871949792 ], [ 23.615516815334558, 46.760365962982178 ], [ 23.615507846698165, 46.760399909690022 ], [ 23.615497956052423, 46.760428827255964 ], [ 23.615486891940236, 46.760452883318067 ], [ 23.615474486723542, 46.760485237464309 ], [ 23.615459650754929, 46.760518932715058 ], [ 23.615446910262108, 46.760546257719398 ], [ 23.615439534187317, 46.760574085637927 ], [ 23.61543333157897, 46.760609038174152 ], [ 23.615432661026716, 46.76063435152173 ], [ 23.615436935797334, 46.760664442554116 ], [ 23.615438528358936, 46.760696545243263 ], [ 23.615441964939237, 46.760728731751442 ], [ 23.615435929968953, 46.760752284899354 ], [ 23.615436013787985, 46.760776340961456 ], [ 23.615437606349587, 46.76081464625895 ], [ 23.615434588864446, 46.760844318196177 ], [ 23.615426793694496, 46.760868625715375 ], [ 23.615429811179638, 46.760894609615207 ], [ 23.615429392084479, 46.760914726182818 ], [ 23.615424865856767, 46.760937944054604 ], [ 23.615429056808352, 46.76096954382956 ], [ 23.61542746424675, 46.760994018986821 ], [ 23.615423524752259, 46.761020673438907 ], [ 23.615420255810022, 46.761053698137403 ], [ 23.615417825058103, 46.761085046455264 ], [ 23.615429140627384, 46.761115221306682 ], [ 23.615454370155931, 46.761137517169118 ], [ 23.615484042093158, 46.761161154136062 ], [ 23.615517485886812, 46.761173475533724 ], [ 23.615547157824039, 46.761185377836227 ], [ 23.615581691265106, 46.761196022853255 ], [ 23.615618739277124, 46.76120650023222 ], [ 23.615650422871113, 46.761215049773455 ], [ 23.61568596214056, 46.761218905448914 ], [ 23.615727284923196, 46.761218821629882 ], [ 23.615772547200322, 46.761225527152419 ], [ 23.615814791992307, 46.761234579607844 ], [ 23.615854941308498, 46.761242961511016 ], [ 23.615895509719849, 46.761249164119363 ], [ 23.615938844159245, 46.761254528537393 ], [ 23.615974215790629, 46.761260312050581 ], [ 23.616007240489125, 46.761267352849245 ], [ 23.616044204682112, 46.761277327314019 ], [ 23.616084605455399, 46.761285541579127 ], [ 23.616128610447049, 46.761288726702332 ], [ 23.616170939058065, 46.761294594034553 ], [ 23.616211088374257, 46.761300461366773 ], [ 23.6162503156811, 46.761305658146739 ], [ 23.616286274045706, 46.761311190202832 ], [ 23.616321142762899, 46.761314040049911 ], [ 23.616357687860727, 46.761318985372782 ], [ 23.616396160796285, 46.761324433609843 ], [ 23.616431029513478, 46.761329881846905 ], [ 23.616466987878084, 46.761338263750076 ], [ 23.616506047546864, 46.761348154395819 ], [ 23.616549968719482, 46.761354189366102 ], [ 23.616593135520816, 46.761357793584466 ], [ 23.616632027551532, 46.761362655088305 ], [ 23.616670249029994, 46.76136676222086 ], [ 23.616712996736169, 46.761371623724699 ], [ 23.616748284548521, 46.761372126638889 ], [ 23.616781895980239, 46.761379167437553 ], [ 23.616822296753526, 46.761387130245566 ], [ 23.616859009489417, 46.761394673958421 ], [ 23.616894129663706, 46.761403055861592 ], [ 23.616933105513453, 46.76140976138413 ], [ 23.616969985887408, 46.761413533240557 ], [ 23.617012733593583, 46.761419484391809 ], [ 23.617052966728806, 46.761426525190473 ], [ 23.617092277854681, 46.761429961770773 ], [ 23.617133181542158, 46.761430213227868 ], [ 23.617169139906764, 46.761432057246566 ], [ 23.617208199575543, 46.761437086388469 ], [ 23.617248432710767, 46.761441025882959 ], [ 23.617285815998912, 46.761447144672275 ], [ 23.617324456572533, 46.761450581252575 ], [ 23.617362678050995, 46.761451587080956 ], [ 23.617399055510759, 46.761454520747066 ], [ 23.6174401268363, 46.761459298431873 ], [ 23.617488238960505, 46.76146206445992 ], [ 23.617520090192556, 46.761459214612842 ], [ 23.617555294185877, 46.761457119137049 ], [ 23.617594689130783, 46.761455861851573 ], [ 23.617633497342467, 46.761457119137049 ], [ 23.617665935307741, 46.761464579030871 ], [ 23.617694936692715, 46.761471871286631 ], [ 23.617729805409908, 46.761474804952741 ], [ 23.617764506489038, 46.761479331180453 ], [ 23.617799459025264, 46.761484192684293 ], [ 23.61782812513411, 46.761498609557748 ], [ 23.617865927517414, 46.761516379192472 ], [ 23.617907166481018, 46.761527610942721 ], [ 23.617956200614572, 46.761537417769432 ], [ 23.618001630529761, 46.761547476053238 ], [ 23.618038007989526, 46.761557785794139 ], [ 23.618075558915734, 46.761562563478947 ], [ 23.61811202019453, 46.761566586792469 ], [ 23.618148816749454, 46.761575974524021 ], [ 23.618191899731755, 46.761582931503654 ], [ 23.618233138695359, 46.761587373912334 ], [ 23.618275299668312, 46.761594833806157 ], [ 23.618315029889345, 46.76159936003387 ], [ 23.618358112871647, 46.761606317013502 ], [ 23.618397172540426, 46.761613693088293 ], [ 23.618437824770808, 46.761619476601481 ], [ 23.618479566648602, 46.761628109961748 ], [ 23.618526421487331, 46.7616374976933 ], [ 23.618570929393172, 46.761645041406155 ], [ 23.618617113679647, 46.761655015870929 ], [ 23.618662543594837, 46.761663984507322 ], [ 23.61870956607163, 46.76167412661016 ], [ 23.618751727044582, 46.7616858612746 ], [ 23.618794810026884, 46.761692818254232 ], [ 23.618834540247917, 46.761696841567755 ], [ 23.618877790868282, 46.761702122166753 ], [ 23.618917101994157, 46.761706145480275 ], [ 23.618957251310349, 46.761714946478605 ], [ 23.618994550779462, 46.761723244562745 ], [ 23.619031766429543, 46.761727770790458 ], [ 23.619067473337054, 46.761742606759071 ], [ 23.619119189679623, 46.761751491576433 ], [ 23.6191600933671, 46.761759873479605 ], [ 23.619204014539719, 46.761771021410823 ], [ 23.619250953197479, 46.761775882914662 ], [ 23.619296047836542, 46.76177722401917 ], [ 23.619342483580112, 46.761779151856899 ], [ 23.619391685351729, 46.761783007532358 ], [ 23.619437618181109, 46.761788791045547 ], [ 23.619477432221174, 46.76179532893002 ], [ 23.619517749175429, 46.761801447719336 ], [ 23.619559910148382, 46.761813769116998 ], [ 23.619606764987111, 46.761819217354059 ], [ 23.619651608169079, 46.761825922876596 ], [ 23.619694020599127, 46.761833969503641 ], [ 23.619736516848207, 46.761843105778098 ], [ 23.619783371686935, 46.761853164061904 ], [ 23.619834836572409, 46.761861378327012 ], [ 23.619882948696613, 46.761871185153723 ], [ 23.619930054992437, 46.76188132725656 ], [ 23.619975317269564, 46.761890631169081 ], [ 23.620023345574737, 46.761901276186109 ], [ 23.62006894312799, 46.761905970051885 ], [ 23.620124431326985, 46.761914938688278 ], [ 23.620174722746015, 46.761922650039196 ], [ 23.620221829041839, 46.761929774656892 ], [ 23.620267594233155, 46.761941509321332 ], [ 23.620315035805106, 46.761952489614487 ], [ 23.620355352759361, 46.761962212622166 ], [ 23.620400028303266, 46.761968499049544 ], [ 23.620447972789407, 46.761967912316322 ], [ 23.620495581999421, 46.761967744678259 ], [ 23.620535563677549, 46.76197319291532 ], [ 23.620578562840819, 46.76197805441916 ], [ 23.620628016069531, 46.76198392175138 ], [ 23.620676631107926, 46.761990962550044 ], [ 23.620718289166689, 46.762001439929008 ], [ 23.620761623606086, 46.762008899822831 ], [ 23.620809484273195, 46.76201325841248 ], [ 23.620855584740639, 46.76202055066824 ], [ 23.620904199779034, 46.762027759104967 ], [ 23.620953066274524, 46.762036811560392 ], [ 23.620998496189713, 46.762047205120325 ], [ 23.621041076257825, 46.762055838480592 ], [ 23.621082818135619, 46.762060532346368 ], [ 23.621125062927604, 46.762066734954715 ], [ 23.621170492842793, 46.762069836258888 ], [ 23.621219862252474, 46.762073440477252 ], [ 23.621268980205059, 46.762077631428838 ], [ 23.621318181976676, 46.762077463790774 ], [ 23.621369646862149, 46.762081487104297 ], [ 23.621415663510561, 46.762085342779756 ], [ 23.621460422873497, 46.762094395235181 ], [ 23.621508534997702, 46.762100597843528 ], [ 23.621555473655462, 46.76211291924119 ], [ 23.621594114229083, 46.762122055515647 ], [ 23.621640633791685, 46.762125995010138 ], [ 23.621688578277826, 46.762131694704294 ], [ 23.621732583269477, 46.762138986960053 ], [ 23.621779354289174, 46.762147871777415 ], [ 23.621825957670808, 46.762159187346697 ], [ 23.621870800852776, 46.762171508744359 ], [ 23.621919751167297, 46.762186847627163 ], [ 23.621965935453773, 46.762199252843857 ], [ 23.622009437531233, 46.762210987508297 ], [ 23.622053107246757, 46.762218782678246 ], [ 23.622092669829726, 46.762226494029164 ], [ 23.622134327888489, 46.762240240350366 ], [ 23.622185541316867, 46.762250047177076 ], [ 23.622235497459769, 46.762255746871233 ], [ 23.622275898233056, 46.762264212593436 ], [ 23.622318562120199, 46.762274606153369 ], [ 23.622359801083803, 46.762281227856874 ], [ 23.622402716428041, 46.762288101017475 ], [ 23.622445464134216, 46.762297404929996 ], [ 23.622483937069774, 46.762310061603785 ], [ 23.622532552108169, 46.762321796268225 ], [ 23.622575299814343, 46.762332525104284 ], [ 23.622621484100819, 46.762341409921646 ], [ 23.622666578739882, 46.762355659157038 ], [ 23.622706057503819, 46.762372590601444 ], [ 23.622738495469093, 46.762397820129991 ], [ 23.622764814645052, 46.762429587543011 ], [ 23.622772106900811, 46.762467809021473 ], [ 23.622754588723183, 46.762503432109952 ], [ 23.622728185728192, 46.762534696608782 ], [ 23.622694239020348, 46.762553723528981 ], [ 23.622652497142553, 46.762540899217129 ], [ 23.622606815770268, 46.762531930580735 ], [ 23.622560715302825, 46.762523883953691 ], [ 23.622517632320523, 46.762514496222138 ], [ 23.622472621500492, 46.762502761557698 ], [ 23.622424760833383, 46.762491948902607 ], [ 23.62238897010684, 46.762468395754695 ], [ 23.622375139966607, 46.762437885627151 ], [ 23.622372793033719, 46.76240854896605 ], [ 23.622394921258092, 46.762389605864882 ], [ 23.622434735298157, 46.762374266982079 ], [ 23.622481841593981, 46.762360855937004 ], [ 23.622521068900824, 46.762366555631161 ], [ 23.62256289459765, 46.762375608086586 ], [ 23.622604049742222, 46.762381810694933 ], [ 23.62265040166676, 46.762392036616802 ], [ 23.622695999220014, 46.762404274195433 ], [ 23.622736819088459, 46.762419864535332 ], [ 23.622767496854067, 46.762452889233828 ], [ 23.62277545966208, 46.762482980266213 ], [ 23.622755594551563, 46.762514831498265 ], [ 23.62272072583437, 46.762539893388748 ], [ 23.622678061947227, 46.762545173987746 ], [ 23.62262886017561, 46.762530421838164 ], [ 23.622587118297815, 46.762521285563707 ], [ 23.622538587078452, 46.762511981651187 ], [ 23.622487708926201, 46.762499324977398 ], [ 23.622440686449409, 46.762484069913626 ], [ 23.622400620952249, 46.762465126812458 ], [ 23.622375642880797, 46.762447105720639 ], [ 23.622360303997993, 46.762424809858203 ], [ 23.622384360060096, 46.762403771281242 ], [ 23.622419647872448, 46.762388097122312 ], [ 23.622473794966936, 46.762369237840176 ], [ 23.622521152719855, 46.762381307780743 ], [ 23.622570689767599, 46.762391030788422 ], [ 23.622622825205326, 46.762402430176735 ], [ 23.622672613710165, 46.762416511774063 ], [ 23.622716031968594, 46.76242908462882 ], [ 23.622759450227022, 46.762448363006115 ], [ 23.622804377228022, 46.762467473745346 ], [ 23.622852992266417, 46.762484991922975 ], [ 23.622892051935196, 46.762504354119301 ], [ 23.622936056926847, 46.762524554505944 ], [ 23.62297679297626, 46.762542575597763 ], [ 23.62301685847342, 46.762563278898597 ], [ 23.623052900657058, 46.762584988027811 ], [ 23.623084416612983, 46.762608708813787 ], [ 23.623112328350544, 46.762632932513952 ], [ 23.623146107420325, 46.762651037424803 ], [ 23.623177874833345, 46.76266947761178 ], [ 23.623211067169905, 46.762688001617789 ], [ 23.623237134888768, 46.762707531452179 ], [ 23.623263873159885, 46.76272320561111 ], [ 23.623288851231337, 46.762746591120958 ], [ 23.623302932828665, 46.762772155925632 ], [ 23.623313242569566, 46.762805934995413 ], [ 23.623324641957879, 46.762832421809435 ], [ 23.623326988890767, 46.762865865603089 ], [ 23.623333694413304, 46.762895369902253 ], [ 23.623344171792269, 46.762929484248161 ], [ 23.623358253389597, 46.762955887243152 ], [ 23.623371748253703, 46.762986145913601 ], [ 23.623378956690431, 46.763020595535636 ], [ 23.623389014974236, 46.76305596716702 ], [ 23.623396977782249, 46.763093853369355 ], [ 23.623404521495104, 46.763126458972692 ], [ 23.623413993045688, 46.763156550005078 ], [ 23.623417261987925, 46.763182701542974 ], [ 23.623421117663383, 46.763212708756328 ], [ 23.623427739366889, 46.763243973255157 ], [ 23.623437630012631, 46.76327096298337 ], [ 23.623441737145185, 46.763296108692884 ], [ 23.623444838449359, 46.763327792286873 ], [ 23.623447436839342, 46.763361655175686 ], [ 23.623447017744184, 46.763393841683865 ], [ 23.623447604477406, 46.763429716229439 ], [ 23.623448610305786, 46.763467267155647 ], [ 23.623455902561545, 46.763496771454811 ], [ 23.623456573113799, 46.763530634343624 ], [ 23.62346101552248, 46.763567766174674 ], [ 23.623466296121478, 46.763599785044789 ], [ 23.623473839834332, 46.763629876077175 ], [ 23.623483814299107, 46.76365896128118 ], [ 23.62348691560328, 46.763682430610061 ], [ 23.623500159010291, 46.763711431995034 ], [ 23.623513402417302, 46.763733392581344 ], [ 23.623522790148854, 46.763759460300207 ], [ 23.623534608632326, 46.76379038952291 ], [ 23.623553300276399, 46.763821905478835 ], [ 23.623564951121807, 46.763853086158633 ], [ 23.623581463471055, 46.763890804722905 ], [ 23.623599233105779, 46.763923075050116 ], [ 23.623612308874726, 46.763954423367977 ], [ 23.623627731576562, 46.763983676210046 ], [ 23.62364080734551, 46.764014940708876 ], [ 23.623654972761869, 46.764044109731913 ], [ 23.623676933348179, 46.764067662879825 ], [ 23.623691517859697, 46.764093646779656 ], [ 23.623696882277727, 46.764127509668469 ], [ 23.623703420162201, 46.764158774167299 ], [ 23.623714065179229, 46.764186015352607 ], [ 23.6237224470824, 46.764214262366295 ], [ 23.623728565871716, 46.7642433475703 ], [ 23.623735019937158, 46.764268996194005 ], [ 23.623742060735822, 46.76429757848382 ], [ 23.623748766258359, 46.764323394745588 ], [ 23.62375614233315, 46.764355078339577 ], [ 23.623767625540495, 46.764392796903849 ], [ 23.623778186738491, 46.764426492154598 ], [ 23.623789669945836, 46.76446320489049 ], [ 23.623802661895752, 46.764502013102174 ], [ 23.623821772634983, 46.764533193781972 ], [ 23.62384314648807, 46.764564123004675 ], [ 23.623858904466033, 46.764597147703171 ], [ 23.623868711292744, 46.764626568183303 ], [ 23.62388170324266, 46.764654563739896 ], [ 23.623897209763527, 46.764688426628709 ], [ 23.623906932771206, 46.764717930927873 ], [ 23.623920679092407, 46.764747016131878 ], [ 23.623930821195245, 46.764777023345232 ], [ 23.623937945812941, 46.76480719819665 ], [ 23.623950099572539, 46.764837959781289 ], [ 23.623964600265026, 46.764866709709167 ], [ 23.623971557244658, 46.764901578426361 ], [ 23.62398530356586, 46.76493426784873 ], [ 23.623995780944824, 46.764964358881116 ], [ 23.624025285243988, 46.764994282275438 ], [ 23.624084461480379, 46.765004675835371 ], [ 23.624147158116102, 46.765003753826022 ], [ 23.624205579981208, 46.765005933120847 ], [ 23.624265007674694, 46.765005933120847 ], [ 23.624312616884708, 46.765002077445388 ], [ 23.624362153932452, 46.7649997305125 ], [ 23.62441236153245, 46.764995958656073 ], [ 23.624459132552147, 46.76499143242836 ], [ 23.624513782560825, 46.764987492933869 ], [ 23.624577987939119, 46.764984391629696 ], [ 23.624636493623257, 46.76497483626008 ], [ 23.624692484736443, 46.764966286718845 ], [ 23.624750403687358, 46.764964777976274 ], [ 23.624807484447956, 46.764961173757911 ], [ 23.624860541895032, 46.764952288940549 ], [ 23.624907564371824, 46.764945164322853 ], [ 23.624966070055962, 46.764942817389965 ], [ 23.625022647902369, 46.764941643923521 ], [ 23.625074867159128, 46.76494499668479 ], [ 23.625134797766805, 46.764950612559915 ], [ 23.625181149691343, 46.764959916472435 ], [ 23.625218030065298, 46.764982296153903 ], [ 23.625254156067967, 46.76501196809113 ], [ 23.625288354232907, 46.765035269781947 ], [ 23.625316433608532, 46.765061002224684 ], [ 23.625343758612871, 46.765090338885784 ], [ 23.6253681499511, 46.765120513737202 ], [ 23.625392122194171, 46.765147000551224 ], [ 23.625418273732066, 46.765175415202975 ], [ 23.625445682555437, 46.7652000579983 ], [ 23.625473007559776, 46.765222940593958 ], [ 23.625505696982145, 46.765248840674758 ], [ 23.625540230423212, 46.765270549803972 ], [ 23.625572919845581, 46.76529192365706 ], [ 23.625608626753092, 46.765311537310481 ], [ 23.625649362802505, 46.76533249206841 ], [ 23.625682890415192, 46.765355374664068 ], [ 23.625722955912352, 46.765375910326838 ], [ 23.625762602314353, 46.76539795473218 ], [ 23.625795627012849, 46.765422429889441 ], [ 23.625835357233882, 46.765446318313479 ], [ 23.625870645046234, 46.765466099604964 ], [ 23.625899646431208, 46.765488898381591 ], [ 23.625934850424528, 46.765513038262725 ], [ 23.625973407179117, 46.765534663572907 ], [ 23.626007018610835, 46.765556205064058 ], [ 23.626042390242219, 46.765580512583256 ], [ 23.626076085492969, 46.765607921406627 ], [ 23.626103661954403, 46.765635497868061 ], [ 23.626129813492298, 46.765663158148527 ], [ 23.626160239800811, 46.765685705468059 ], [ 23.626185804605484, 46.765710599720478 ], [ 23.626214638352394, 46.765737505629659 ], [ 23.626245819032192, 46.76576348952949 ], [ 23.626277167350054, 46.765781929716468 ], [ 23.626314885914326, 46.76579911261797 ], [ 23.62636492587626, 46.765805063769221 ], [ 23.626410774886608, 46.765804393216968 ], [ 23.626456037163734, 46.765803387388587 ], [ 23.626501467078924, 46.765802381560206 ], [ 23.626544969156384, 46.765800956636667 ], [ 23.626591404899955, 46.765796598047018 ], [ 23.626640439033508, 46.765790143981576 ], [ 23.626685198396444, 46.765785533934832 ], [ 23.626735992729664, 46.765786707401276 ], [ 23.626781674101949, 46.765783270820975 ], [ 23.626830875873566, 46.765777990221977 ], [ 23.626881502568722, 46.765775559470057 ], [ 23.62692735157907, 46.765777235850692 ], [ 23.626968087628484, 46.765780001878738 ], [ 23.627013936638832, 46.765778576955199 ], [ 23.627055762335658, 46.765777403488755 ], [ 23.627102700993419, 46.765775475651026 ], [ 23.627139832824469, 46.765774972736835 ], [ 23.627182077616453, 46.765772877261043 ], [ 23.627226250246167, 46.765769775956869 ], [ 23.627268746495247, 46.765764746814966 ], [ 23.62730847671628, 46.765764746814966 ], [ 23.627347201108932, 46.765761394053698 ], [ 23.627390535548329, 46.765759466215968 ], [ 23.627428757026792, 46.765755861997604 ], [ 23.627462619915605, 46.765752593055367 ], [ 23.627501092851162, 46.765749994665384 ], [ 23.62754107452929, 46.76574538461864 ], [ 23.627582900226116, 46.7657336499542 ], [ 23.627617685124278, 46.765723004937172 ], [ 23.627660684287548, 46.765718059614301 ], [ 23.627703012898564, 46.765712359920144 ], [ 23.627742156386375, 46.76570288836956 ], [ 23.627777947112918, 46.765692913904786 ], [ 23.62781809642911, 46.765680089592934 ], [ 23.627858748659492, 46.765663828700781 ], [ 23.62789336591959, 46.765652429312468 ], [ 23.627923959866166, 46.765643712133169 ], [ 23.627959247678518, 46.765634659677744 ], [ 23.627997888252139, 46.765625858679414 ], [ 23.628037450835109, 46.765617728233337 ], [ 23.628079108893871, 46.765616722404957 ], [ 23.628118084743619, 46.765616722404957 ], [ 23.628160245716572, 46.765619069337845 ], [ 23.628202322870493, 46.765621080994606 ], [ 23.628243058919907, 46.765619404613972 ], [ 23.628281867131591, 46.765615046024323 ], [ 23.628320004791021, 46.765610938891768 ], [ 23.628355292603374, 46.765606496483088 ], [ 23.628392592072487, 46.765602640807629 ], [ 23.628427125513554, 46.765600461512804 ], [ 23.628461994230747, 46.765607837587595 ], [ 23.628491582348943, 46.765617979690433 ], [ 23.628515973687172, 46.76563105545938 ], [ 23.628539443016052, 46.765653267502785 ], [ 23.62858428619802, 46.765665085986257 ], [ 23.628630051389337, 46.765663074329495 ], [ 23.628669362515211, 46.765660475939512 ], [ 23.628709930926561, 46.765652429312468 ], [ 23.628755025565624, 46.765642538666725 ], [ 23.628795007243752, 46.765634994953871 ], [ 23.628833647817373, 46.765628540888429 ], [ 23.628870863467455, 46.765622505918145 ], [ 23.628905648365617, 46.765617812052369 ], [ 23.628948396071792, 46.765611190348864 ], [ 23.628986366093159, 46.765601886436343 ], [ 23.62902651540935, 46.765591660514474 ], [ 23.629069095477462, 46.765582105144858 ], [ 23.62911100499332, 46.765572046861053 ], [ 23.629150232300162, 46.76556458696723 ], [ 23.629190633073449, 46.765556121245027 ], [ 23.62922927364707, 46.76554799079895 ], [ 23.629272105172276, 46.765543129295111 ], [ 23.629313595592976, 46.765537681058049 ], [ 23.629351314157248, 46.765531897544861 ], [ 23.629395989701152, 46.765530975535512 ], [ 23.629442844539881, 46.765529047697783 ], [ 23.629488861188293, 46.765528209507465 ], [ 23.629531525075436, 46.765522509813309 ], [ 23.629575865343213, 46.76551815122366 ], [ 23.629621965810657, 46.765518989413977 ], [ 23.629667060449719, 46.765522761270404 ], [ 23.629718273878098, 46.765524437651038 ], [ 23.629756830632687, 46.765522845089436 ], [ 23.629801170900464, 46.765523012727499 ], [ 23.6298424936831, 46.765525275841355 ], [ 23.629885073751211, 46.765526365488768 ], [ 23.629934191703796, 46.765524270012975 ], [ 23.629993200302124, 46.765518905594945 ], [ 23.630052376538515, 46.765486970543861 ], [ 23.63007752224803, 46.765453945845366 ], [ 23.63008582033217, 46.765414047986269 ], [ 23.630033098161221, 46.765389321371913 ], [ 23.629992781206965, 46.765370462089777 ], [ 23.629958834499121, 46.765345567837358 ], [ 23.629924301058054, 46.765320422127843 ], [ 23.629888845607638, 46.765301479026675 ], [ 23.629852384328842, 46.765282619744539 ], [ 23.629815755411983, 46.765262251719832 ], [ 23.629777198657393, 46.765246158465743 ], [ 23.629737133160233, 46.765230400487781 ], [ 23.629706287756562, 46.765214307233691 ], [ 23.629676196724176, 46.765195028856397 ], [ 23.6296456027776, 46.765177426859736 ], [ 23.629611069336534, 46.765161417424679 ], [ 23.629578296095133, 46.765138199552894 ], [ 23.629547450691462, 46.765119759365916 ], [ 23.629510151222348, 46.765105593949556 ], [ 23.629479892551899, 46.765087656676769 ], [ 23.629443263635039, 46.765068545937538 ], [ 23.629405796527863, 46.765050021931529 ], [ 23.629371598362923, 46.765031917020679 ], [ 23.629332957789302, 46.76500853151083 ], [ 23.6292933113873, 46.764991180971265 ], [ 23.6292605381459, 46.76496796309948 ], [ 23.629230950027704, 46.764948517084122 ], [ 23.629199434071779, 46.764932926744223 ], [ 23.629167415201664, 46.764914151281118 ], [ 23.629138916730881, 46.764895627275109 ], [ 23.629096671938896, 46.764880539849401 ], [ 23.629056354984641, 46.764862518757582 ], [ 23.62902014516294, 46.764846090227365 ], [ 23.628977900370955, 46.76482823677361 ], [ 23.628933727741241, 46.764808287844062 ], [ 23.62889064475894, 46.764791188761592 ], [ 23.628852339461446, 46.764774844050407 ], [ 23.628808250650764, 46.76475590094924 ], [ 23.62876164726913, 46.764738634228706 ], [ 23.628715295344591, 46.76473343744874 ], [ 23.628666345030069, 46.764737712219357 ], [ 23.628623094409704, 46.764736957848072 ], [ 23.628582190722227, 46.764736790210009 ], [ 23.628540867939591, 46.764740981161594 ], [ 23.628501640632749, 46.764740394428372 ], [ 23.628470208495855, 46.76473880186677 ], [ 23.628431400284171, 46.764738382771611 ], [ 23.628391502425075, 46.764737544581294 ], [ 23.628348670899868, 46.76473637111485 ], [ 23.628306509926915, 46.764735700562596 ], [ 23.628267701715231, 46.764733605086803 ], [ 23.628227803856134, 46.764732180163264 ], [ 23.628188576549292, 46.764731593430042 ], [ 23.628150271251798, 46.764732180163264 ], [ 23.628111882135272, 46.764735365286469 ], [ 23.628069385886192, 46.764740226790309 ], [ 23.62802873365581, 46.76473980769515 ], [ 23.627987913787365, 46.764739975333214 ], [ 23.627950781956315, 46.764739640057087 ], [ 23.627910632640123, 46.764740478247404 ], [ 23.627871489152312, 46.76474274136126 ], [ 23.627833686769009, 46.764740729704499 ], [ 23.627795800566673, 46.764743328094482 ], [ 23.627757411450148, 46.764746261760592 ], [ 23.627718100324273, 46.764748021960258 ], [ 23.62768080085516, 46.764749363064766 ], [ 23.627640819177032, 46.7647476028651 ], [ 23.627601508051157, 46.764751290902495 ], [ 23.627563957124949, 46.764751290902495 ], [ 23.62752347253263, 46.764749363064766 ], [ 23.62747997045517, 46.764749698340893 ], [ 23.627437641844153, 46.764746513217688 ], [ 23.627394391223788, 46.764747854322195 ], [ 23.62735197879374, 46.764747854322195 ], [ 23.627310488373041, 46.76474709995091 ], [ 23.627272015437484, 46.764747267588973 ], [ 23.627230105921626, 46.764745255932212 ], [ 23.627189537510276, 46.764743579551578 ], [ 23.627146622166038, 46.764743579551578 ], [ 23.627102617174387, 46.764743914827704 ], [ 23.627066239714622, 46.7647476028651 ], [ 23.627030784264207, 46.764749614521861 ], [ 23.626994825899601, 46.764743495732546 ], [ 23.62695811316371, 46.764740813523531 ], [ 23.626925675198436, 46.764739640057087 ], [ 23.626894745975733, 46.764736622571945 ], [ 23.626858368515968, 46.764740394428372 ], [ 23.626819141209126, 46.764742657542229 ], [ 23.626781338825822, 46.764737041667104 ], [ 23.626740938052535, 46.764738885685802 ], [ 23.626702213659883, 46.764742070809007 ], [ 23.626667764037848, 46.764745842665434 ], [ 23.626630632206798, 46.764748189598322 ], [ 23.626591907814145, 46.764746597036719 ], [ 23.626560140401125, 46.764750955626369 ], [ 23.6265251878649, 46.76475347019732 ], [ 23.626491324976087, 46.764754224568605 ], [ 23.626460311934352, 46.764755314216018 ], [ 23.626428041607141, 46.764754224568605 ], [ 23.626392586156726, 46.76475347019732 ], [ 23.626362243667245, 46.76474567502737 ], [ 23.626331314444542, 46.764736119657755 ], [ 23.626297200098634, 46.764728240668774 ], [ 23.626266689971089, 46.764716422185302 ], [ 23.626240119338036, 46.764698987826705 ], [ 23.626210950314999, 46.764681804925203 ], [ 23.626182787120342, 46.764661772176623 ], [ 23.626160826534033, 46.764639979228377 ], [ 23.626141464337707, 46.764617599546909 ], [ 23.626110451295972, 46.764596980065107 ], [ 23.626084635034204, 46.764577617868781 ], [ 23.626067116856575, 46.76455901004374 ], [ 23.626045910641551, 46.764537887647748 ], [ 23.626026129350066, 46.764515843242407 ], [ 23.626014143228531, 46.764497989788651 ], [ 23.625999810174108, 46.764476532116532 ], [ 23.625982208177447, 46.764452559873462 ], [ 23.625970976427197, 46.764425570145249 ], [ 23.625962845981121, 46.764400592073798 ], [ 23.625955386087298, 46.764377625659108 ], [ 23.625951111316681, 46.764353318139911 ], [ 23.625946501269937, 46.764327837154269 ], [ 23.625937532633543, 46.764301266521215 ], [ 23.625935353338718, 46.764278551563621 ], [ 23.625934347510338, 46.764250053092837 ], [ 23.625933509320021, 46.764223398640752 ], [ 23.625929402187467, 46.764195905998349 ], [ 23.625924121588469, 46.764170341193676 ], [ 23.625918505713344, 46.764142429456115 ], [ 23.625916745513678, 46.764115607365966 ], [ 23.625913225114346, 46.764088282361627 ], [ 23.625909285619855, 46.764061711728573 ], [ 23.62590417265892, 46.764036566019058 ], [ 23.625897970050573, 46.764010582119226 ], [ 23.625890929251909, 46.76398292183876 ], [ 23.625881457701325, 46.763955177739263 ], [ 23.625872489064932, 46.763928271830082 ], [ 23.625864693894982, 46.763900360092521 ], [ 23.625854216516018, 46.763874711468816 ], [ 23.625836782157421, 46.763848811388016 ], [ 23.625818006694317, 46.763826096430421 ], [ 23.62580400891602, 46.763803130015731 ], [ 23.625788586214185, 46.763779325410724 ], [ 23.625775258988142, 46.763757867738605 ], [ 23.625764362514019, 46.763734063133597 ], [ 23.625752041116357, 46.763713108375669 ], [ 23.625737875699997, 46.763691985979676 ], [ 23.625731253996491, 46.763668013736606 ], [ 23.62573997117579, 46.763645550236106 ], [ 23.625764949247241, 46.763637587428093 ], [ 23.625809540972114, 46.763641443103552 ], [ 23.625840386375785, 46.763655859977007 ], [ 23.625843906775117, 46.763680083677173 ], [ 23.625829992815852, 46.76370095461607 ], [ 23.625818258151412, 46.763722077012062 ], [ 23.625802583992481, 46.763743786141276 ], [ 23.625779701396823, 46.763770021498203 ], [ 23.625762602314353, 46.76379575394094 ], [ 23.625751286745071, 46.763820815831423 ], [ 23.625746425241232, 46.763847721740603 ], [ 23.625750951468945, 46.763870185241103 ], [ 23.625756734982133, 46.763894911855459 ], [ 23.625765116885304, 46.76392768509686 ], [ 23.625772744417191, 46.763957273215055 ], [ 23.625776600092649, 46.763982251286507 ], [ 23.625778863206506, 46.764009492471814 ], [ 23.625784814357758, 46.764036314561963 ], [ 23.625787999480963, 46.764064226299524 ], [ 23.625790094956756, 46.764089539647102 ], [ 23.625794537365437, 46.76411627791822 ], [ 23.625799817964435, 46.764144692569971 ], [ 23.625805350020528, 46.764173274859786 ], [ 23.625816581770778, 46.764204036444426 ], [ 23.625825131312013, 46.764231445267797 ], [ 23.625832172110677, 46.76425751298666 ], [ 23.625841056928039, 46.764285592362285 ], [ 23.625847427174449, 46.764313420280814 ], [ 23.625852288678288, 46.764339068904519 ], [ 23.62586117349565, 46.764368740841746 ], [ 23.625868717208505, 46.764402519911528 ], [ 23.625873494893312, 46.764431772753596 ], [ 23.625887827947736, 46.764461109414697 ], [ 23.625908782705665, 46.764486925676465 ], [ 23.625937281176448, 46.764513915404677 ], [ 23.62596720457077, 46.764535708352923 ], [ 23.625991595908999, 46.76456144079566 ], [ 23.626013388857245, 46.764585413038731 ], [ 23.626040127128363, 46.764611732214689 ], [ 23.626069547608495, 46.76463914103806 ], [ 23.626098381355405, 46.764664873480797 ], [ 23.626126376911998, 46.764688678085804 ], [ 23.626158814877272, 46.764709800481796 ], [ 23.626189744099975, 46.764730168506503 ], [ 23.626224612817168, 46.764748524874449 ], [ 23.626263169571757, 46.764764115214348 ], [ 23.626309689134359, 46.764775682240725 ], [ 23.626352604478598, 46.764786997810006 ], [ 23.62639375962317, 46.764790350571275 ], [ 23.626439105719328, 46.764793368056417 ], [ 23.626490654423833, 46.764797894284129 ], [ 23.626537676900625, 46.764799486845732 ], [ 23.626582017168403, 46.764798145741224 ], [ 23.626623004674911, 46.764798648655415 ], [ 23.626663405448198, 46.764796050265431 ], [ 23.62670699134469, 46.764798313379288 ], [ 23.626750325784087, 46.764798564836383 ], [ 23.626799695193768, 46.764797056093812 ], [ 23.626851327717304, 46.764795631170273 ], [ 23.62689265049994, 46.764795128256083 ], [ 23.626940762624145, 46.7647959664464 ], [ 23.626990970224142, 46.764795295894146 ], [ 23.627037657424808, 46.764795882627368 ], [ 23.627079483121634, 46.764791272580624 ], [ 23.627119045704603, 46.764787752181292 ], [ 23.627159697934985, 46.764785908162594 ], [ 23.627201272174716, 46.764782136306167 ], [ 23.627244774252176, 46.76478280685842 ], [ 23.627285761758685, 46.764781298115849 ], [ 23.627327168360353, 46.764782890677452 ], [ 23.627372765913606, 46.764783896505833 ], [ 23.627421129494905, 46.764787081629038 ], [ 23.627460105344653, 46.764793954789639 ], [ 23.627499667927623, 46.764794290065765 ], [ 23.627538727596402, 46.764794290065765 ], [ 23.62757720053196, 46.764795128256083 ], [ 23.627617601305246, 46.76479353569448 ], [ 23.627660265192389, 46.764798732474446 ], [ 23.627708209678531, 46.764799822121859 ], [ 23.627750286832452, 46.764796636998653 ], [ 23.627788675948977, 46.764792781323195 ], [ 23.627828406170011, 46.764793954789639 ], [ 23.627865873277187, 46.764797139912844 ], [ 23.627905352041125, 46.76479890011251 ], [ 23.627948015928268, 46.764799570664763 ], [ 23.627990260720253, 46.764800827950239 ], [ 23.628032170236111, 46.764799822121859 ], [ 23.628074415028095, 46.764803426340222 ], [ 23.628111127763987, 46.764807868748903 ], [ 23.628149684518576, 46.764806946739554 ], [ 23.628188576549292, 46.764809461310506 ], [ 23.62821975722909, 46.76480770111084 ], [ 23.628254039213061, 46.764807365834713 ], [ 23.628291171044111, 46.764806443825364 ], [ 23.628327883780003, 46.764804683625698 ], [ 23.628362584859133, 46.76479890011251 ], [ 23.628398459404707, 46.76479303278029 ], [ 23.628437770530581, 46.76479160785675 ], [ 23.628472220152617, 46.764791021123528 ], [ 23.628507591784, 46.764790015295148 ], [ 23.628542711958289, 46.764787919819355 ], [ 23.628578586503863, 46.764787919819355 ], [ 23.628614041954279, 46.764790182933211 ], [ 23.628654526546597, 46.764790434390306 ], [ 23.628690149635077, 46.76479110494256 ], [ 23.628728538751602, 46.764794960618019 ], [ 23.628764664754272, 46.764799151569605 ], [ 23.628795426338911, 46.764809628948569 ], [ 23.628818979486823, 46.764819184318185 ], [ 23.628849405795336, 46.764829074963927 ], [ 23.628873378038406, 46.764842988923192 ], [ 23.628897937014699, 46.764855561777949 ], [ 23.628928447142243, 46.764871487393975 ], [ 23.628960382193327, 46.76488590426743 ], [ 23.628994161263108, 46.764900404959917 ], [ 23.629025761038065, 46.764921527355909 ], [ 23.629057109355927, 46.764939464628696 ], [ 23.629087619483471, 46.764953294768929 ], [ 23.629122069105506, 46.764966538175941 ], [ 23.62915500998497, 46.764984894543886 ], [ 23.629185101017356, 46.765000149607658 ], [ 23.629212845116854, 46.765012638643384 ], [ 23.629238158464432, 46.765028480440378 ], [ 23.629264058545232, 46.765044573694468 ], [ 23.629293479025364, 46.765058906748891 ], [ 23.629322731867433, 46.765075335279107 ], [ 23.629352571442723, 46.765091009438038 ], [ 23.629382411018014, 46.765108527615666 ], [ 23.62941300496459, 46.765124620869756 ], [ 23.629444604739547, 46.765138953924179 ], [ 23.629474192857742, 46.765158735215664 ], [ 23.629509396851063, 46.765175247564912 ], [ 23.62953957170248, 46.765191340819001 ], [ 23.629566561430693, 46.76520399749279 ], [ 23.629596652463078, 46.765217576175928 ], [ 23.629624145105481, 46.765231909230351 ], [ 23.629652978852391, 46.76524892449379 ], [ 23.629682650789618, 46.765263006091118 ], [ 23.629708969965577, 46.765277422964573 ], [ 23.629735372960567, 46.765293348580599 ], [ 23.629770744591951, 46.765311034396291 ], [ 23.62980485893786, 46.765330815687776 ], [ 23.629831597208977, 46.765349758788943 ], [ 23.629864957183599, 46.765366271138191 ], [ 23.62990066409111, 46.765378089621663 ], [ 23.629931677132845, 46.765394099056721 ], [ 23.629957661032677, 46.765417484566569 ], [ 23.629983812570572, 46.765439193695784 ], [ 23.630009377375245, 46.765459980815649 ], [ 23.630040306597948, 46.765478337183595 ], [ 23.630070481449366, 46.765496106818318 ], [ 23.630098979920149, 46.765510020777583 ], [ 23.630130412057042, 46.765523515641689 ], [ 23.630169974640012, 46.765533741563559 ], [ 23.630204675719142, 46.765542794018984 ], [ 23.630243567749858, 46.76555092446506 ], [ 23.630282375961542, 46.765554863959551 ], [ 23.630319172516465, 46.765562910586596 ], [ 23.630361584946513, 46.765574058517814 ], [ 23.630406260490417, 46.765584368258715 ], [ 23.630453031510115, 46.765591911971569 ], [ 23.630496030673385, 46.765601215884089 ], [ 23.630529223009944, 46.765612112358212 ], [ 23.630565600469708, 46.765628373250365 ], [ 23.630608264356852, 46.765642203390598 ], [ 23.630641205236316, 46.765654776245356 ], [ 23.630670374259353, 46.765669360756874 ], [ 23.630698369815946, 46.765684532001615 ], [ 23.630727790296078, 46.765698529779911 ], [ 23.630754193291068, 46.765713868662715 ], [ 23.630778333172202, 46.765729459002614 ], [ 23.630803897976875, 46.76574781537056 ], [ 23.630830049514771, 46.765767512843013 ], [ 23.630853602662683, 46.765786372125149 ], [ 23.630876904353499, 46.765804644674063 ], [ 23.630901044234633, 46.765823755413294 ], [ 23.630921747535467, 46.765849571675062 ], [ 23.630942869931459, 46.765872621908784 ], [ 23.630956280976534, 46.765893241390586 ], [ 23.630968350917101, 46.765917800366879 ], [ 23.630977487191558, 46.765945963561535 ], [ 23.630984360352159, 46.765968846157193 ], [ 23.630986204370856, 46.765992566943169 ], [ 23.630987461656332, 46.766021065413952 ], [ 23.630984360352159, 46.766048390418291 ], [ 23.63098343834281, 46.766076050698757 ], [ 23.630985785275698, 46.766100022941828 ], [ 23.630991233512759, 46.766125420108438 ], [ 23.630998861044645, 46.766150649636984 ], [ 23.63100447691977, 46.766176130622625 ], [ 23.631008835509419, 46.766200270503759 ], [ 23.631010008975863, 46.766228014603257 ], [ 23.63101914525032, 46.766254501417279 ], [ 23.631018223240972, 46.766273947432637 ], [ 23.631011769175529, 46.766300182789564 ], [ 23.631010092794895, 46.766326082870364 ], [ 23.631007997319102, 46.766353324055672 ], [ 23.631007242947817, 46.76638257689774 ], [ 23.631008081138134, 46.766409147530794 ], [ 23.631009757518768, 46.76643974147737 ], [ 23.63100741058588, 46.76647000014782 ], [ 23.631004979833961, 46.76649983972311 ], [ 23.631004979833961, 46.766528254374862 ], [ 23.630997771397233, 46.766556166112423 ], [ 23.630991484969854, 46.766584161669016 ], [ 23.630990730598569, 46.766608385369182 ], [ 23.630980085581541, 46.766630429774523 ], [ 23.630969440564513, 46.766653815284371 ], [ 23.630959717556834, 46.76667770370841 ], [ 23.630949826911092, 46.766702849417925 ], [ 23.630937924608588, 46.766725899651647 ], [ 23.630926106125116, 46.766748195514083 ], [ 23.630913197994232, 46.766769401729107 ], [ 23.630896685644984, 46.766791949048638 ], [ 23.630879921838641, 46.766813574358821 ], [ 23.630867432802916, 46.766833942383528 ], [ 23.630853435024619, 46.766855148598552 ], [ 23.63083784468472, 46.766873924061656 ], [ 23.630823846906424, 46.766898231580853 ], [ 23.630810100585222, 46.766920275986195 ], [ 23.630796605721116, 46.766944751143456 ], [ 23.630780512467027, 46.766969561576843 ], [ 23.630768107250333, 46.766992276534438 ], [ 23.630751594901085, 46.767016667872667 ], [ 23.630735585466027, 46.767038963735104 ], [ 23.63072058185935, 46.767063103616238 ], [ 23.630716390907764, 46.767087494954467 ], [ 23.630710523575544, 46.767109036445618 ], [ 23.630706081166863, 46.767126889899373 ], [ 23.630700800567865, 46.767144575715065 ], [ 23.630697950720787, 46.767155891284347 ], [ 23.630713876336813, 46.767155807465315 ], [ 23.630727706477046, 46.767144408077002 ], [ 23.630742793902755, 46.767133679240942 ], [ 23.630757881328464, 46.767124962061644 ], [ 23.630775902420282, 46.767113646492362 ], [ 23.630787050351501, 46.767100319266319 ], [ 23.630802221596241, 46.767085567116737 ], [ 23.630821164697409, 46.767076347023249 ], [ 23.630840945988894, 46.767062684521079 ], [ 23.630857625976205, 46.767042400315404 ], [ 23.630877155810595, 46.767013566568494 ], [ 23.630891488865018, 46.766990264877677 ], [ 23.630910012871027, 46.766961514949799 ], [ 23.630924597382545, 46.76693569868803 ], [ 23.630942283198237, 46.766908122226596 ], [ 23.630961813032627, 46.766880378127098 ], [ 23.630977990105748, 46.766851125285029 ], [ 23.630997771397233, 46.766824135556817 ], [ 23.631017133593559, 46.766794631257653 ], [ 23.6310323048383, 46.766763450577855 ], [ 23.631045715883374, 46.766738891601562 ], [ 23.631065748631954, 46.76670846529305 ], [ 23.631078656762838, 46.766676781699061 ], [ 23.631082847714424, 46.766645768657327 ], [ 23.6310875415802, 46.766615929082036 ], [ 23.631093325093389, 46.766587598249316 ], [ 23.631100114434958, 46.766560776159167 ], [ 23.631108496338129, 46.766532110050321 ], [ 23.631118051707745, 46.76650277338922 ], [ 23.631120817735791, 46.76647293381393 ], [ 23.631125008687377, 46.766442507505417 ], [ 23.631129367277026, 46.76641040481627 ], [ 23.631128780543804, 46.766382493078709 ], [ 23.631129954010248, 46.766353491693735 ], [ 23.631132720038295, 46.76632683724165 ], [ 23.631132636219263, 46.766295405104756 ], [ 23.631129367277026, 46.766267828643322 ], [ 23.631123332306743, 46.766239749267697 ], [ 23.631120314821601, 46.766209322959185 ], [ 23.631119057536125, 46.76618468016386 ], [ 23.631116291508079, 46.766156600788236 ], [ 23.631113860756159, 46.766130030155182 ], [ 23.631108831614256, 46.766104213893414 ], [ 23.631108915433288, 46.766080157831311 ], [ 23.631105730310082, 46.766050150617957 ], [ 23.631106317043304, 46.76602341234684 ], [ 23.631108244881034, 46.765999691560864 ], [ 23.631104724481702, 46.765976054593921 ], [ 23.631094750016928, 46.765948813408613 ], [ 23.631078824400902, 46.76592274568975 ], [ 23.631063485518098, 46.765897516161203 ], [ 23.631044710054994, 46.76587144844234 ], [ 23.631029287353158, 46.765845213085413 ], [ 23.631004309281707, 46.765822833403945 ], [ 23.630977068096399, 46.765802297741175 ], [ 23.630956532433629, 46.765781342983246 ], [ 23.630938343703747, 46.765758628025651 ], [ 23.630914790555835, 46.765740104019642 ], [ 23.630886292085052, 46.765717724338174 ], [ 23.630858967080712, 46.765697104856372 ], [ 23.63082367926836, 46.765677910298109 ], [ 23.630789900198579, 46.7656593862921 ], [ 23.630759557709098, 46.765639521181583 ], [ 23.63072594627738, 46.765624936670065 ], [ 23.630695519968867, 46.765610352158546 ], [ 23.630665261298418, 46.765593001618981 ], [ 23.630624022334814, 46.765582943335176 ], [ 23.630592925474048, 46.765572968870401 ], [ 23.630555961281061, 46.765560144558549 ], [ 23.630516063421965, 46.765552349388599 ], [ 23.630473148077726, 46.765548242256045 ], [ 23.630440374836326, 46.765541536733508 ], [ 23.630402572453022, 46.765522425994277 ], [ 23.630366865545511, 46.765507590025663 ], [ 23.630340294912457, 46.765495100989938 ], [ 23.630308359861374, 46.765485797077417 ], [ 23.63027055747807, 46.765480013564229 ], [ 23.630239209160209, 46.765471296384931 ], [ 23.63020752556622, 46.765462160110474 ], [ 23.630176009610295, 46.765449335798621 ], [ 23.630132423713803, 46.765440702438354 ], [ 23.630092861130834, 46.765442630276084 ], [ 23.630062518641353, 46.765426956117153 ], [ 23.630022369325161, 46.765411449596286 ], [ 23.629977526143193, 46.765405917540193 ], [ 23.629936622455716, 46.765401475131512 ], [ 23.629893539473414, 46.765393763780594 ], [ 23.629847019910812, 46.765390075743198 ], [ 23.629808630794287, 46.765389321371913 ], [ 23.629772756248713, 46.765388147905469 ], [ 23.629731349647045, 46.765384124591947 ], [ 23.629691200330853, 46.765380520373583 ], [ 23.629652643576264, 46.765376916155219 ], [ 23.629616182297468, 46.765377335250378 ], [ 23.629579553380609, 46.765378508716822 ], [ 23.629542337730527, 46.765380017459393 ], [ 23.629500092938542, 46.765381777659059 ], [ 23.629466313868761, 46.765384543687105 ], [ 23.629424571990967, 46.7653813585639 ], [ 23.629381069913507, 46.76538186147809 ], [ 23.62934460863471, 46.765390746295452 ], [ 23.629307309165597, 46.76539845764637 ], [ 23.629267662763596, 46.765403905883431 ], [ 23.629224076867104, 46.765405582264066 ], [ 23.629186106845737, 46.76541312597692 ], [ 23.62914914265275, 46.765426034107804 ], [ 23.629119051620364, 46.765438271686435 ], [ 23.629088373854756, 46.765452437102795 ], [ 23.629064736887813, 46.765467943623662 ], [ 23.62903674133122, 46.765478840097785 ], [ 23.629007656127214, 46.765483869239688 ], [ 23.628976475447416, 46.765491915866733 ], [ 23.628950994461775, 46.765498789027333 ], [ 23.628919143229723, 46.7655108589679 ], [ 23.628886956721544, 46.765523683279753 ], [ 23.628860050812364, 46.765535417944193 ], [ 23.628832893446088, 46.765548074617982 ], [ 23.62879584543407, 46.765554947778583 ], [ 23.628761144354939, 46.765565341338515 ], [ 23.628730718046427, 46.765580596402287 ], [ 23.628700207918882, 46.765594761818647 ], [ 23.628671374171972, 46.765602640807629 ], [ 23.628643546253443, 46.765608508139849 ], [ 23.628612868487835, 46.765619404613972 ], [ 23.628587387502193, 46.765630384907126 ], [ 23.628562577068806, 46.765638347715139 ], [ 23.628534581512213, 46.765630804002285 ], [ 23.628516476601362, 46.765616135671735 ], [ 23.628511196002364, 46.765597946941853 ], [ 23.62849535420537, 46.765580680221319 ], [ 23.628459563478827, 46.765565341338515 ], [ 23.628419749438763, 46.765554612502456 ], [ 23.628376582637429, 46.765546901151538 ], [ 23.628332745283842, 46.765540530905128 ], [ 23.628288740292192, 46.765543716028333 ], [ 23.628241717815399, 46.765544218942523 ], [ 23.628202239051461, 46.765546649694443 ], [ 23.628165442496538, 46.765548074617982 ], [ 23.628125628456473, 46.765544721856713 ], [ 23.628083383664489, 46.765545308589935 ], [ 23.628041055053473, 46.765549164265394 ], [ 23.628006856888533, 46.765558887273073 ], [ 23.627966372296214, 46.765567352995276 ], [ 23.627924798056483, 46.765572968870401 ], [ 23.627883559092879, 46.765583278611302 ], [ 23.627843661233783, 46.765594677999616 ], [ 23.627804098650813, 46.765604484826326 ], [ 23.627764284610748, 46.765617895871401 ], [ 23.627729918807745, 46.765630636364222 ], [ 23.627688931301236, 46.765635833144188 ], [ 23.627649871632457, 46.765644550323486 ], [ 23.627613158896565, 46.765656871721148 ], [ 23.62757577560842, 46.765660811215639 ], [ 23.62753814086318, 46.765661565586925 ], [ 23.62750050611794, 46.765666762366891 ], [ 23.627463961020112, 46.765674389898777 ], [ 23.627424985170364, 46.765673384070396 ], [ 23.627391206100583, 46.765675814822316 ], [ 23.627348374575377, 46.765684532001615 ], [ 23.627306548878551, 46.765689644962549 ], [ 23.627266986295581, 46.765693500638008 ], [ 23.627232033759356, 46.765694003552198 ], [ 23.627189872786403, 46.765702133998275 ], [ 23.627152992412448, 46.765709090977907 ], [ 23.627115190029144, 46.765707582235336 ], [ 23.627075375989079, 46.765706492587924 ], [ 23.627037154510617, 46.765710515901446 ], [ 23.627003375440836, 46.765715880319476 ], [ 23.626965237781405, 46.765715461224318 ], [ 23.626928860321641, 46.765717221423984 ], [ 23.626889381557703, 46.765718562528491 ], [ 23.626853423193097, 46.765718897804618 ], [ 23.626813776791096, 46.765721077099442 ], [ 23.626774046570063, 46.765724932774901 ], [ 23.626734232529998, 46.765729961916804 ], [ 23.626697435975075, 46.765735158696771 ], [ 23.626661645248532, 46.765740606933832 ], [ 23.626625519245863, 46.765747228637338 ], [ 23.626587046310306, 46.765753431245685 ], [ 23.626555949449539, 46.765756197273731 ], [ 23.626521835103631, 46.7657629866153 ], [ 23.626488642767072, 46.76576885394752 ], [ 23.62645729444921, 46.765775475651026 ], [ 23.626428125426173, 46.765778074041009 ], [ 23.626397950574756, 46.765773044899106 ], [ 23.626370374113321, 46.765763824805617 ], [ 23.626346485689282, 46.765747396275401 ], [ 23.626331398263574, 46.765730883926153 ], [ 23.62631119787693, 46.765710180625319 ], [ 23.626288566738367, 46.765689393505454 ], [ 23.62626576796174, 46.765671204775572 ], [ 23.626242214813828, 46.765649495646358 ], [ 23.626221679151058, 46.765632480382919 ], [ 23.626200724393129, 46.765614207834005 ], [ 23.62617876380682, 46.765593085438013 ], [ 23.626152947545052, 46.765575399622321 ], [ 23.626122772693634, 46.765556875616312 ], [ 23.626090418547392, 46.765536675229669 ], [ 23.626066697761416, 46.765513457357883 ], [ 23.626039372757077, 46.765490239486098 ], [ 23.62600333057344, 46.765477834269404 ], [ 23.625970557332039, 46.765459980815649 ], [ 23.625941472128034, 46.765443217009306 ], [ 23.625910123810172, 46.76542729139328 ], [ 23.625873746350408, 46.765413461253047 ], [ 23.625838458538055, 46.765398541465402 ], [ 23.625807110220194, 46.765379095450044 ], [ 23.625776348635554, 46.765360739082098 ], [ 23.625750029459596, 46.765340873971581 ], [ 23.62571801058948, 46.765322182327509 ], [ 23.625687249004841, 46.765304915606976 ], [ 23.625662606209517, 46.765287313610315 ], [ 23.625636957585812, 46.765275243669748 ], [ 23.6256134044379, 46.765269879251719 ], [ 23.625594209879637, 46.765261329710484 ], [ 23.625575350597501, 46.765252780169249 ], [ 23.625564454123378, 46.765242218971252 ], [ 23.625556491315365, 46.765238279476762 ], [ 23.625560430809855, 46.765231490135193 ], [ 23.62556604668498, 46.765226796269417 ], [ 23.625571997836232, 46.765212714672089 ], [ 23.625578954815865, 46.765198800712824 ], [ 23.625585744157434, 46.765187317505479 ], [ 23.625593623146415, 46.765172062441707 ], [ 23.625605273991823, 46.765150688588619 ], [ 23.625618433579803, 46.76512822508812 ], [ 23.625633688643575, 46.765107018873096 ], [ 23.625647518783808, 46.765088411048055 ], [ 23.625668557360768, 46.765061002224684 ], [ 23.625693283975124, 46.765030659735203 ], [ 23.625718597322702, 46.765002412721515 ], [ 23.625739300623536, 46.764976847916842 ], [ 23.625762183219194, 46.764954049140215 ], [ 23.625786071643233, 46.764927562326193 ], [ 23.625819934532046, 46.764896800741553 ], [ 23.625855222344398, 46.764869811013341 ], [ 23.625890258699656, 46.764850448817015 ], [ 23.625924708321691, 46.764832679182291 ], [ 23.625966366380453, 46.764815328642726 ], [ 23.626012550666928, 46.764799738302827 ], [ 23.626055298373103, 46.76479009911418 ], [ 23.626095782965422, 46.764785405248404 ], [ 23.626157306134701, 46.764779705554247 ], [ 23.626217991113663, 46.764780879020691 ], [ 23.626275407150388, 46.764778196811676 ], [ 23.626322178170085, 46.764776268973947 ], [ 23.626370374113321, 46.764772245660424 ], [ 23.62641622312367, 46.764771742746234 ], [ 23.626459976658225, 46.764778532087803 ], [ 23.626508004963398, 46.764788422733545 ], [ 23.626547735184431, 46.764788841828704 ], [ 23.626589896157384, 46.764789344742894 ], [ 23.626635409891605, 46.764788422733545 ], [ 23.626674050465226, 46.764789847657084 ], [ 23.626706069335341, 46.764790853485465 ], [ 23.626744961366057, 46.764792026951909 ], [ 23.626784104853868, 46.76479160785675 ], [ 23.626822745427489, 46.76479110494256 ], [ 23.626859877258539, 46.764791691675782 ], [ 23.626895667985082, 46.764793116599321 ], [ 23.626934308558702, 46.76479646936059 ], [ 23.626977726817131, 46.764800492674112 ], [ 23.627016367390752, 46.76480577327311 ], [ 23.627053583040833, 46.764807114377618 ], [ 23.627092810347676, 46.764805102720857 ], [ 23.627132959663868, 46.764798397198319 ], [ 23.627176713198423, 46.764796217903495 ], [ 23.627222897484899, 46.764795631170273 ], [ 23.627263465896249, 46.764792781323195 ], [ 23.627309398725629, 46.764790015295148 ], [ 23.627351643517613, 46.764793284237385 ], [ 23.627385757863522, 46.764793954789639 ], [ 23.627422554418445, 46.764793368056417 ], [ 23.627462200820446, 46.764793787151575 ], [ 23.627497488632798, 46.764792781323195 ], [ 23.627533446997404, 46.764789260923862 ], [ 23.62756890244782, 46.764787836000323 ], [ 23.627605866640806, 46.76478574052453 ], [ 23.627640567719936, 46.764789680019021 ], [ 23.627671748399734, 46.764798229560256 ], [ 23.627710556611419, 46.764800660312176 ], [ 23.627743162214756, 46.764803258702159 ], [ 23.627782640978694, 46.764802671968937 ], [ 23.627822874113917, 46.764801666140556 ], [ 23.627865286543965, 46.7647994030267 ], [ 23.627902586013079, 46.764800241217017 ], [ 23.627939382568002, 46.764801163226366 ], [ 23.627970311790705, 46.764801079407334 ], [ 23.628005012869835, 46.764798564836383 ], [ 23.628038875758648, 46.76479890011251 ], [ 23.628072068095207, 46.764799235388637 ], [ 23.628106517717242, 46.764800744131207 ], [ 23.628141302615404, 46.764798481017351 ], [ 23.628174746409059, 46.764796553179622 ], [ 23.628200814127922, 46.764790937304497 ], [ 23.628229899331927, 46.764786830171943 ], [ 23.628261247649789, 46.764784818515182 ], [ 23.628290751948953, 46.764783812686801 ], [ 23.628328219056129, 46.764789512380958 ], [ 23.628370631486177, 46.764788255095482 ], [ 23.628409439697862, 46.764783896505833 ], [ 23.62844455987215, 46.764781046658754 ], [ 23.62848605029285, 46.764778364449739 ], [ 23.628525948151946, 46.764780292287469 ], [ 23.628561906516552, 46.764783142134547 ], [ 23.62859258428216, 46.764784483239055 ], [ 23.628624519333243, 46.764783309772611 ], [ 23.62865561619401, 46.764779705554247 ], [ 23.628685958683491, 46.764777526259422 ], [ 23.628722755238414, 46.76478230394423 ], [ 23.628756366670132, 46.764792362228036 ], [ 23.628789559006691, 46.764800492674112 ], [ 23.628820655867457, 46.764809209853411 ], [ 23.628849824890494, 46.764821615070105 ], [ 23.628873880952597, 46.76483360119164 ], [ 23.628900200128555, 46.764845922589302 ], [ 23.628926435485482, 46.764857489615679 ], [ 23.628961807116866, 46.764870816841722 ], [ 23.628995753824711, 46.764888167381287 ], [ 23.629026934504509, 46.764901075512171 ], [ 23.629055265337229, 46.764914989471436 ], [ 23.629084015265107, 46.764930244535208 ], [ 23.629116956144571, 46.764945164322853 ], [ 23.629148304462433, 46.764961089938879 ], [ 23.629177724942565, 46.764978356659412 ], [ 23.629208235070109, 46.764992186799645 ], [ 23.629235224798322, 46.765006016939878 ], [ 23.629265986382961, 46.765020014718175 ], [ 23.629295574501157, 46.765035437420011 ], [ 23.629324994981289, 46.765052955597639 ], [ 23.629354499280453, 46.765069887042046 ], [ 23.629386853426695, 46.76508329808712 ], [ 23.629413340240717, 46.765098469331861 ], [ 23.629443347454071, 46.765116574242711 ], [ 23.629472348839045, 46.765134176239371 ], [ 23.629495399072766, 46.765145072713494 ], [ 23.62952540628612, 46.765156723558903 ], [ 23.629552396014333, 46.765167871490121 ], [ 23.629577709361911, 46.765182120725513 ], [ 23.629604782909155, 46.76519712433219 ], [ 23.629632694646716, 46.765212044119835 ], [ 23.629660103470087, 46.765226293355227 ], [ 23.62969153560698, 46.765240039676428 ], [ 23.629722967743874, 46.765251690521836 ], [ 23.629754902794957, 46.765261078253388 ], [ 23.629783485084772, 46.765278344973922 ], [ 23.629817180335522, 46.765292091295123 ], [ 23.629849953576922, 46.765305250883102 ], [ 23.629882140085101, 46.765316314995289 ], [ 23.62991432659328, 46.765330480411649 ], [ 23.629942070692778, 46.765342550352216 ], [ 23.629969311878085, 46.765355709940195 ], [ 23.629997810348868, 46.765371216461062 ], [ 23.630023961886764, 46.76538378931582 ], [ 23.630050281062722, 46.765399463474751 ], [ 23.630071235820651, 46.765417316928506 ], [ 23.630064195021987, 46.765435421839356 ], [ 23.630042737349868, 46.76545268855989 ], [ 23.630008455365896, 46.765453442931175 ], [ 23.629976687952876, 46.765446485951543 ], [ 23.629945004358888, 46.765442881733179 ], [ 23.629911057651043, 46.765440870076418 ], [ 23.629870489239693, 46.765437014400959 ], [ 23.629830088466406, 46.765438104048371 ], [ 23.629796057939529, 46.765438606962562 ], [ 23.62976286560297, 46.765433242544532 ], [ 23.629723386839032, 46.765431733801961 ], [ 23.629686841741204, 46.765431733801961 ], [ 23.629654739052057, 46.765434248372912 ], [ 23.629617607221007, 46.765433494001627 ], [ 23.629581229761243, 46.765435254201293 ], [ 23.629549210891128, 46.765436679124832 ], [ 23.629518952220678, 46.765436343848705 ], [ 23.629487352445722, 46.765439612790942 ], [ 23.629462206736207, 46.765442546457052 ], [ 23.629433792084455, 46.765439696609974 ], [ 23.629412753507495, 46.765441205352545 ], [ 23.629390206187963, 46.765440367162228 ], [ 23.629362881183624, 46.765439361333847 ], [ 23.629326671361923, 46.765443217009306 ], [ 23.629289204254746, 46.765447659417987 ], [ 23.629255006089807, 46.765449084341526 ], [ 23.629216616973281, 46.765451934188604 ], [ 23.629173953086138, 46.765457969158888 ], [ 23.629133552312851, 46.765463417395949 ], [ 23.629103628918529, 46.765473391860723 ], [ 23.629069346934557, 46.765479762107134 ], [ 23.629033472388983, 46.765482779592276 ], [ 23.629001453518867, 46.765488982200623 ], [ 23.628971194848418, 46.765496861189604 ], [ 23.628939427435398, 46.765509266406298 ], [ 23.628910006955266, 46.765521923080087 ], [ 23.628884609788656, 46.765536507591605 ], [ 23.628855524584651, 46.765545476227999 ], [ 23.628823505714536, 46.765553774312139 ], [ 23.62879442051053, 46.765562575310469 ], [ 23.628760557621717, 46.765569616109133 ], [ 23.628726191818714, 46.765579087659717 ], [ 23.628698363900185, 46.765587469562888 ], [ 23.628673972561955, 46.765594510361552 ], [ 23.62864438444376, 46.765600126236677 ], [ 23.628618652001023, 46.765609262511134 ], [ 23.628590488806367, 46.76561881788075 ], [ 23.628565678372979, 46.765620913356543 ], [ 23.628542795777321, 46.765613118186593 ], [ 23.628534832969308, 46.765599371865392 ], [ 23.628516476601362, 46.765581266954541 ], [ 23.628475908190012, 46.76556508988142 ], [ 23.628432238474488, 46.765553774312139 ], [ 23.628384545445442, 46.765545308589935 ], [ 23.628339366987348, 46.765542039647698 ], [ 23.628294942900538, 46.765542039647698 ], [ 23.628250099718571, 46.765542039647698 ], [ 23.628210285678506, 46.765539273619652 ], [ 23.628170555457473, 46.765539022162557 ], [ 23.628131579607725, 46.765541955828667 ], [ 23.62809419631958, 46.765541872009635 ], [ 23.628054717555642, 46.765546649694443 ], [ 23.628018423914909, 46.765552181750536 ], [ 23.627981459721923, 46.765556959435344 ], [ 23.627940556034446, 46.765561569482088 ], [ 23.627900155261159, 46.765566766262054 ], [ 23.627864951267838, 46.765573974698782 ], [ 23.627832597121596, 46.765583278611302 ], [ 23.62779906950891, 46.765592750161886 ], [ 23.627764452248812, 46.765598114579916 ], [ 23.627731008455157, 46.765607418492436 ], [ 23.627703264355659, 46.765620578080416 ], [ 23.627670910209417, 46.7656334862113 ], [ 23.627635454759002, 46.765642622485757 ], [ 23.627603352069855, 46.765653351321816 ], [ 23.627568734809756, 46.765660727396607 ], [ 23.627531602978706, 46.765668774023652 ], [ 23.627494471147656, 46.76567304879427 ], [ 23.627458093687892, 46.765682604163885 ], [ 23.627420710399747, 46.765686208382249 ], [ 23.627380225807428, 46.765690566971898 ], [ 23.627340495586395, 46.765695428475738 ], [ 23.627304537221789, 46.765696685761213 ], [ 23.627262962982059, 46.765699703246355 ], [ 23.627217533066869, 46.765708336606622 ], [ 23.627175875008106, 46.765709593892097 ], [ 23.627140251919627, 46.765712443739176 ], [ 23.62710865214467, 46.76571412011981 ], [ 23.62707344815135, 46.765710934996605 ], [ 23.627034723758698, 46.765710012987256 ], [ 23.626994406804442, 46.765712024644017 ], [ 23.626948557794094, 46.765711521729827 ], [ 23.626904804259539, 46.765712862834334 ], [ 23.626859625801444, 46.765715293586254 ], [ 23.626815620809793, 46.765719149261713 ], [ 23.626777483150363, 46.765727447345853 ], [ 23.626736495643854, 46.765733817592263 ], [ 23.626691736280918, 46.765739265829325 ], [ 23.626650664955378, 46.765746222808957 ], [ 23.626609342172742, 46.765751838684082 ], [ 23.626569695770741, 46.765757454559207 ], [ 23.626528205350041, 46.76576055586338 ], [ 23.626492917537689, 46.765762399882078 ], [ 23.626458216458559, 46.765764579176903 ], [ 23.626425694674253, 46.765764998272061 ], [ 23.626396022737026, 46.765768686309457 ], [ 23.626372134312987, 46.765766255557537 ], [ 23.62635369412601, 46.765749407932162 ], [ 23.62633416429162, 46.765732811763883 ], [ 23.626320334151387, 46.765716634690762 ], [ 23.626301139593124, 46.765698613598943 ], [ 23.626277670264244, 46.765682185068727 ], [ 23.626258056610823, 46.765666091814637 ], [ 23.626241711899638, 46.765645388513803 ], [ 23.626224277541041, 46.765627199783921 ], [ 23.626206088811159, 46.76561001688242 ], [ 23.626182116568089, 46.765593169257045 ], [ 23.626158898696303, 46.765573220327497 ], [ 23.626136351376772, 46.765553522855043 ], [ 23.626108858734369, 46.765539776533842 ], [ 23.626080863177776, 46.765526784583926 ], [ 23.626062842085958, 46.765513038262725 ], [ 23.626041132956743, 46.76549568772316 ], [ 23.626017076894641, 46.76548395305872 ], [ 23.625992434099317, 46.765472386032343 ], [ 23.625967875123024, 46.76545662805438 ], [ 23.62594029866159, 46.765445396304131 ], [ 23.625913476571441, 46.765431482344866 ], [ 23.62588413991034, 46.765417568385601 ], [ 23.625856311991811, 46.765403905883431 ], [ 23.625832675024867, 46.765388399362564 ], [ 23.625810714438558, 46.765372138470411 ], [ 23.625790178775787, 46.76535788923502 ], [ 23.62576830200851, 46.765342382714152 ], [ 23.625743240118027, 46.765330228954554 ], [ 23.625719686970115, 46.765315309166908 ], [ 23.625698983669281, 46.765300389379263 ], [ 23.625677106902003, 46.765287145972252 ], [ 23.625659421086311, 46.765279602259398 ], [ 23.62564031034708, 46.76527189090848 ], [ 23.62562220543623, 46.765262084081769 ], [ 23.625607453286648, 46.765253283083439 ], [ 23.6255943775177, 46.765246829017997 ], [ 23.625588091090322, 46.765242302790284 ], [ 23.625575937330723, 46.765234926715493 ], [ 23.625562358647585, 46.765231993049383 ], [ 23.625550540164113, 46.765230903401971 ], [ 23.625553390011191, 46.765227383002639 ], [ 23.62555724568665, 46.765220258384943 ], [ 23.625568058341742, 46.765211541205645 ], [ 23.625581050291657, 46.765204919502139 ], [ 23.625591527670622, 46.765190754085779 ], [ 23.625599909573793, 46.765175331383944 ], [ 23.62561441026628, 46.765154376626015 ], [ 23.625629330053926, 46.765134846791625 ], [ 23.625645339488983, 46.765116741880774 ], [ 23.625659253448248, 46.765098804607987 ], [ 23.625673586502671, 46.76507692784071 ], [ 23.625695630908012, 46.76505396142602 ], [ 23.625724045559764, 46.765029402449727 ], [ 23.625744832679629, 46.765004340559244 ], [ 23.625761177390814, 46.764982799068093 ], [ 23.625785820186138, 46.76496553234756 ], [ 23.625802164897323, 46.76494013518095 ], [ 23.625821359455585, 46.764920270070434 ], [ 23.625846169888973, 46.764898980036378 ], [ 23.625870393589139, 46.764881545677781 ], [ 23.625892354175448, 46.764864111319184 ], [ 23.625912638381124, 46.764844413846731 ], [ 23.625932252034545, 46.764825973659754 ], [ 23.625963851809502, 46.764817088842392 ], [ 23.625992769375443, 46.764805437996984 ], [ 23.626021686941385, 46.764794541522861 ], [ 23.626053873449564, 46.764784902334213 ], [ 23.626088323071599, 46.764780040830374 ], [ 23.626131825149059, 46.764774844050407 ], [ 23.626182535663247, 46.764774257317185 ], [ 23.626222601160407, 46.764773419126868 ], [ 23.626268114894629, 46.764772078022361 ], [ 23.626312203705311, 46.764770988374949 ], [ 23.626349251717329, 46.764767551794648 ], [ 23.626387976109982, 46.764766294509172 ], [ 23.626420330256224, 46.764768389984965 ], [ 23.626460898667574, 46.764772832393646 ], [ 23.626498365774751, 46.764777190983295 ], [ 23.6265320610255, 46.76477886736393 ], [ 23.626565337181091, 46.764776101335883 ], [ 23.626599451526999, 46.764774341136217 ], [ 23.626636750996113, 46.764774844050407 ], [ 23.626672457903624, 46.764776855707169 ], [ 23.626707745715976, 46.764778615906835 ], [ 23.626743536442518, 46.764776604250073 ], [ 23.626783015206456, 46.764776352792978 ], [ 23.626820985227823, 46.764776101335883 ], [ 23.626862308010459, 46.764777107164264 ], [ 23.626902457326651, 46.764778783544898 ], [ 23.626937828958035, 46.764782471582294 ], [ 23.626969680190086, 46.764785908162594 ], [ 23.627001950517297, 46.764785824343562 ], [ 23.627035394310951, 46.76478716544807 ], [ 23.627067329362035, 46.764787249267101 ], [ 23.627102533355355, 46.764786662533879 ], [ 23.627138407900929, 46.764787081629038 ], [ 23.62717361189425, 46.764789009466767 ], [ 23.627207474783063, 46.764790685847402 ], [ 23.62724594771862, 46.764793619513512 ], [ 23.627280062064528, 46.764792865142226 ], [ 23.627313589677215, 46.764789931476116 ], [ 23.627349464222789, 46.764788758009672 ], [ 23.62739103846252, 46.764788758009672 ], [ 23.62742624245584, 46.764789596199989 ], [ 23.62746094353497, 46.764791440218687 ], [ 23.627492375671864, 46.76479060202837 ], [ 23.627527412027121, 46.764789931476116 ], [ 23.627563202753663, 46.76479110494256 ], [ 23.627595640718937, 46.764791691675782 ], [ 23.627629838883877, 46.764791859313846 ], [ 23.627668060362339, 46.764794290065765 ], [ 23.627705192193389, 46.76479303278029 ], [ 23.627737378701568, 46.764790350571275 ], [ 23.627773337066174, 46.764789009466767 ], [ 23.627810552716255, 46.764789512380958 ], [ 23.627840559929609, 46.764791356399655 ], [ 23.627874590456486, 46.76479110494256 ], [ 23.62790560349822, 46.764790853485465 ], [ 23.627937538549304, 46.764790434390306 ], [ 23.627970395609736, 46.76479160785675 ], [ 23.628003504127264, 46.764792026951909 ], [ 23.628033343702555, 46.76479160785675 ], [ 23.628062177449465, 46.764789344742894 ], [ 23.628086149692535, 46.764787081629038 ], [ 23.628108110278845, 46.764790350571275 ], [ 23.62813719548285, 46.764792194589972 ], [ 23.62816602922976, 46.764788506552577 ], [ 23.628195198252797, 46.764786494895816 ], [ 23.628225456923246, 46.764785824343562 ], [ 23.628251692280173, 46.764781130477786 ], [ 23.628274071961641, 46.764779537916183 ], [ 23.628293434157968, 46.764777442440391 ], [ 23.628313047811389, 46.764777442440391 ], [ 23.628331487998366, 46.764776017516851 ], [ 23.628348167985678, 46.764775682240725 ], [ 23.628362417221069, 46.764778615906835 ], [ 23.628381444141269, 46.764779035001993 ], [ 23.628405835479498, 46.764779789373279 ], [ 23.628420419991016, 46.764779957011342 ], [ 23.628441961482167, 46.764780543744564 ], [ 23.628458976745605, 46.764784483239055 ], [ 23.628475656732917, 46.764785489067435 ], [ 23.628491749987006, 46.764785656705499 ], [ 23.628504490479827, 46.764785991981626 ], [ 23.628521338105202, 46.764787333086133 ], [ 23.628536593168974, 46.764786662533879 ], [ 23.628551848232746, 46.764784818515182 ], [ 23.628567354753613, 46.764783477410674 ], [ 23.62857649102807, 46.764782052487135 ], [ 23.628592249006033, 46.764779705554247 ], [ 23.628604570403695, 46.764780292287469 ], [ 23.628618652001023, 46.764780543744564 ], [ 23.628629297018051, 46.764780879020691 ], [ 23.628643294796348, 46.764783812686801 ], [ 23.62865561619401, 46.764783225953579 ], [ 23.628658633679152, 46.764781717211008 ], [ 23.628651341423392, 46.764778280630708 ], [ 23.628648575395346, 46.764766210690141 ], [ 23.628632230684161, 46.764756320044398 ], [ 23.628610940650105, 46.764752883464098 ], [ 23.628590321168303, 46.764745591208339 ], [ 23.62857255153358, 46.764743747189641 ], [ 23.628554446622729, 46.764746261760592 ], [ 23.628541454672813, 46.764746597036719 ], [ 23.628528378903866, 46.764748692512512 ], [ 23.628517566248775, 46.764748692512512 ], [ 23.628499880433083, 46.764751290902495 ], [ 23.628482613712549, 46.764748524874449 ], [ 23.628465933725238, 46.764747519046068 ], [ 23.628450343385339, 46.764747519046068 ], [ 23.628436597064137, 46.764746010303497 ], [ 23.628420252352953, 46.764744501560926 ], [ 23.628402147442102, 46.764743411913514 ], [ 23.628384713083506, 46.764740478247404 ], [ 23.628374822437763, 46.764740226790309 ], [ 23.62835512496531, 46.764742825180292 ], [ 23.628328386694193, 46.764744920656085 ], [ 23.628309359773993, 46.764750117436051 ], [ 23.628287734463811, 46.764753218740225 ], [ 23.628268372267485, 46.764755230396986 ], [ 23.628248674795032, 46.764753051102161 ], [ 23.628229480236769, 46.764751877635717 ], [ 23.628209782764316, 46.764752296730876 ], [ 23.628190420567989, 46.764752632007003 ], [ 23.628170220181346, 46.764753721654415 ], [ 23.628155216574669, 46.764755398035049 ], [ 23.628134513273835, 46.76475690677762 ], [ 23.62811372615397, 46.764758750796318 ], [ 23.628096040338278, 46.764758080244064 ], [ 23.628078270703554, 46.764756739139557 ], [ 23.628057315945625, 46.76475590094924 ], [ 23.628042060881853, 46.764752883464098 ], [ 23.628027476370335, 46.764749111607671 ], [ 23.628009287640452, 46.76474709995091 ], [ 23.627990428358316, 46.764745507389307 ], [ 23.627972407266498, 46.764742992818356 ], [ 23.627950195223093, 46.764742908999324 ], [ 23.627927983179688, 46.76474466919899 ], [ 23.627905854955316, 46.764745926484466 ], [ 23.627885151654482, 46.764748524874449 ], [ 23.627863107249141, 46.764749782159925 ], [ 23.627839721739292, 46.76474860869348 ], [ 23.627816839143634, 46.764748357236385 ], [ 23.627793453633785, 46.764746513217688 ], [ 23.627770403400064, 46.764743831008673 ], [ 23.627750119194388, 46.76474123261869 ], [ 23.627733020111918, 46.764737712219357 ], [ 23.627714412286878, 46.764732766896486 ], [ 23.627697732299566, 46.764731258153915 ], [ 23.62768080085516, 46.764733269810677 ], [ 23.627663031220436, 46.764733605086803 ], [ 23.627646770328283, 46.764732012525201 ], [ 23.627624725922942, 46.76473343744874 ], [ 23.62760310061276, 46.76473000086844 ], [ 23.627583654597402, 46.764727653935552 ], [ 23.627559347078204, 46.764728492125869 ], [ 23.627536129206419, 46.764728743582964 ], [ 23.627518778666854, 46.764729497954249 ], [ 23.627496566623449, 46.764729581773281 ], [ 23.627477455884218, 46.764728575944901 ], [ 23.627461781725287, 46.764734443277121 ], [ 23.627446610480547, 46.764738718047738 ], [ 23.627432445064187, 46.764742573723197 ], [ 23.62741207703948, 46.764741316437721 ], [ 23.627395983785391, 46.764741064980626 ], [ 23.627377711236477, 46.76473980769515 ], [ 23.627356924116611, 46.764738215133548 ], [ 23.627339992672205, 46.764738382771611 ], [ 23.627323480322957, 46.764738550409675 ], [ 23.627307303249836, 46.764738718047738 ], [ 23.627289114519954, 46.764737293124199 ], [ 23.627268159762025, 46.764731509611011 ], [ 23.627243768423796, 46.764731258153915 ], [ 23.627216527238488, 46.764732096344233 ], [ 23.627195656299591, 46.764731928706169 ], [ 23.62717604264617, 46.764731425791979 ], [ 23.627155926078558, 46.764731258153915 ], [ 23.627135390415788, 46.764729833230376 ], [ 23.627106808125973, 46.764730922877789 ], [ 23.62707830965519, 46.764733772724867 ], [ 23.627054756507277, 46.764737125486135 ], [ 23.627034975215793, 46.764736957848072 ], [ 23.627020977437496, 46.764732012525201 ], [ 23.626997843384743, 46.764726815745234 ], [ 23.626975044608116, 46.764716170728207 ], [ 23.626945959404111, 46.764713572338223 ], [ 23.626910420134664, 46.764720277860761 ], [ 23.62687605433166, 46.764721870422363 ], [ 23.626843197271228, 46.764722457155585 ], [ 23.626806987449527, 46.764723714441061 ], [ 23.626768263056874, 46.7647251393646 ], [ 23.626735573634505, 46.764727234840393 ], [ 23.626699363812804, 46.764726899564266 ], [ 23.626667428761721, 46.7647251393646 ], [ 23.626632392406464, 46.764725055545568 ], [ 23.626599367707968, 46.76472757011652 ], [ 23.626562571153045, 46.764729497954249 ], [ 23.626526780426502, 46.76472564227879 ], [ 23.626492330804467, 46.764724804088473 ], [ 23.626459641382098, 46.764723211526871 ], [ 23.626423850655556, 46.764722373336554 ], [ 23.626391412690282, 46.764721535146236 ], [ 23.626359477639198, 46.764721116051078 ], [ 23.626328213140368, 46.764717763289809 ], [ 23.626297451555729, 46.764717008918524 ], [ 23.626260487362742, 46.764717092737556 ], [ 23.62622763030231, 46.764716086909175 ], [ 23.626194773241878, 46.764717428013682 ], [ 23.626161916181445, 46.764717679470778 ], [ 23.626132244244218, 46.764717344194651 ], [ 23.626102907583117, 46.764718266204 ], [ 23.626068793237209, 46.764717930927873 ], [ 23.62603216432035, 46.764725307002664 ], [ 23.626003162935376, 46.764734443277121 ], [ 23.625975837931037, 46.764738969504833 ], [ 23.625944908708334, 46.764748021960258 ], [ 23.625915572047234, 46.764762103557587 ], [ 23.625889252871275, 46.764774424955249 ], [ 23.625866118818521, 46.764786327257752 ], [ 23.625849522650242, 46.764796385541558 ], [ 23.625826137140393, 46.764812562614679 ], [ 23.625801745802164, 46.764826057478786 ], [ 23.625781880691648, 46.764840641990304 ], [ 23.625763608142734, 46.764855980873108 ], [ 23.625743240118027, 46.764868721365929 ], [ 23.625727314502001, 46.764883389696479 ], [ 23.625715412199497, 46.764897890388966 ], [ 23.625704934820533, 46.764913145452738 ], [ 23.625686410814524, 46.764928987249732 ], [ 23.625670736655593, 46.764948181807995 ], [ 23.625655900686979, 46.764965280890465 ], [ 23.62564223818481, 46.764985313639045 ], [ 23.625630000606179, 46.765002747997642 ], [ 23.625617008656263, 46.765019930899143 ], [ 23.625607956200838, 46.765038035809994 ], [ 23.625599574297667, 46.765047591179609 ], [ 23.625586833804846, 46.765060164034367 ], [ 23.625574260950089, 46.76507793366909 ], [ 23.625569231808186, 46.765093859285116 ], [ 23.625559005886316, 46.765111712738872 ], [ 23.625552216544747, 46.76513409242034 ], [ 23.625545930117369, 46.765154711902142 ], [ 23.625534782186151, 46.765174996107817 ], [ 23.625522712245584, 46.765189664438367 ], [ 23.625504020601511, 46.765195950865746 ], [ 23.625476863235235, 46.765192430466413 ], [ 23.625467224046588, 46.765176840126514 ], [ 23.625456998124719, 46.76515806466341 ], [ 23.625440569594502, 46.76513995975256 ], [ 23.625427829101682, 46.76512336358428 ], [ 23.625415004789829, 46.765106432139874 ], [ 23.625400336459279, 46.765091428533196 ], [ 23.625387847423553, 46.765076760202646 ], [ 23.625375190749764, 46.765062008053064 ], [ 23.625358929857612, 46.76504616625607 ], [ 23.625340657308698, 46.765030240640044 ], [ 23.625322552397847, 46.765012471005321 ], [ 23.625300005078316, 46.764994952827692 ], [ 23.625276703387499, 46.764979613944888 ], [ 23.625254575163126, 46.764966202899814 ], [ 23.625229429453611, 46.764954049140215 ], [ 23.625201182439923, 46.76494499668479 ], [ 23.625168493017554, 46.764935692772269 ], [ 23.625129936262965, 46.764928065240383 ], [ 23.625095402821898, 46.764921778813004 ], [ 23.625058773905039, 46.764919515699148 ], [ 23.625028347596526, 46.764912893995643 ], [ 23.624998005107045, 46.764908619225025 ], [ 23.624964393675327, 46.764905182644725 ], [ 23.624934889376163, 46.764905266463757 ], [ 23.62490588799119, 46.764908200129867 ], [ 23.624879904091358, 46.764909038320184 ], [ 23.624849645420909, 46.764908954501152 ], [ 23.624818632379174, 46.764912307262421 ], [ 23.624786864966154, 46.764919515699148 ], [ 23.624753756448627, 46.764925215393305 ], [ 23.624717714264989, 46.764930998906493 ], [ 23.624688042327762, 46.764938542619348 ], [ 23.624652922153473, 46.764946086332202 ], [ 23.624623166397214, 46.764942985028028 ], [ 23.624594667926431, 46.764943320304155 ], [ 23.624563822522759, 46.764942482113838 ], [ 23.624534402042627, 46.764949439093471 ], [ 23.624509759247303, 46.764948600903153 ], [ 23.624485870823264, 46.764951199293137 ], [ 23.624462066218257, 46.764955641701818 ], [ 23.624433316290379, 46.764958407729864 ], [ 23.624403476715088, 46.764960838481784 ], [ 23.624375313520432, 46.764959832653403 ], [ 23.624342791736126, 46.764963436871767 ], [ 23.62431613728404, 46.764965783804655 ], [ 23.624283531680703, 46.764968130737543 ], [ 23.624254195019603, 46.76497139967978 ], [ 23.62422863021493, 46.764971818774939 ], [ 23.624196611344814, 46.764972321689129 ], [ 23.624168615788221, 46.764976345002651 ], [ 23.624138440936804, 46.764978021383286 ], [ 23.624114971607924, 46.764973495155573 ], [ 23.624094352126122, 46.764962514862418 ], [ 23.624078594148159, 46.764941476285458 ], [ 23.624080354347825, 46.764921275898814 ], [ 23.624077336862683, 46.764899902045727 ], [ 23.624074151739478, 46.76487660035491 ], [ 23.624069038778543, 46.76485070027411 ], [ 23.624063841998577, 46.76482480019331 ], [ 23.624057807028294, 46.764798145741224 ], [ 23.6240522749722, 46.764770736917853 ], [ 23.624043054878712, 46.764738885685802 ], [ 23.624037858098745, 46.764710890129209 ], [ 23.624032158404589, 46.764685576781631 ], [ 23.624022267758846, 46.764657078310847 ], [ 23.624014304950833, 46.764629753306508 ], [ 23.624003240838647, 46.764604523777962 ], [ 23.623997289687395, 46.764579713344574 ], [ 23.623994691297412, 46.764552472159266 ], [ 23.623987315222621, 46.764527326449752 ], [ 23.623981447890401, 46.764503354206681 ], [ 23.623970551416278, 46.764482064172626 ], [ 23.623959235846996, 46.764456331729889 ], [ 23.623948087915778, 46.764430515468121 ], [ 23.623940879479051, 46.764406710863113 ], [ 23.623930653557181, 46.764380810782313 ], [ 23.623920427635312, 46.764352731406689 ], [ 23.623911458998919, 46.764323897659779 ], [ 23.623908692970872, 46.764294980093837 ], [ 23.623905759304762, 46.764271007850766 ], [ 23.623900813981891, 46.76424284465611 ], [ 23.62389444373548, 46.76421501673758 ], [ 23.623886564746499, 46.764192804694176 ], [ 23.623882876709104, 46.764170005917549 ], [ 23.623872399330139, 46.764147626236081 ], [ 23.623863598331809, 46.764123234897852 ], [ 23.623854210600257, 46.764099765568972 ], [ 23.623844906687737, 46.764073865488172 ], [ 23.623838955536485, 46.764050479978323 ], [ 23.623829567804933, 46.764023238793015 ], [ 23.62381724640727, 46.763996249064803 ], [ 23.623811546713114, 46.7639687564224 ], [ 23.623804422095418, 46.76393992267549 ], [ 23.623797716572881, 46.763914693146944 ], [ 23.623788580298424, 46.763888457790017 ], [ 23.623775085434318, 46.763867922127247 ], [ 23.62376494333148, 46.763840848580003 ], [ 23.623756393790245, 46.763813607394695 ], [ 23.62374541349709, 46.763784270733595 ], [ 23.623737785965204, 46.763758705928922 ], [ 23.623728733509779, 46.763730542734265 ], [ 23.62371657975018, 46.763703553006053 ], [ 23.623708952218294, 46.763677904382348 ], [ 23.623697049915791, 46.763653429225087 ], [ 23.623681962490082, 46.763631384819746 ], [ 23.623657990247011, 46.763607915490866 ], [ 23.623635694384575, 46.763581177219748 ], [ 23.623621528968215, 46.76355485804379 ], [ 23.623611303046346, 46.763529209420085 ], [ 23.623602585867047, 46.763504901900887 ], [ 23.62359344959259, 46.763477744534612 ], [ 23.623583056032658, 46.763445222750306 ], [ 23.623576685786247, 46.76340876147151 ], [ 23.623575931414962, 46.763378167524934 ], [ 23.623572494834661, 46.763348747044802 ], [ 23.623563861474395, 46.763319913297892 ], [ 23.623558664694428, 46.763297114521265 ], [ 23.623552713543177, 46.763273729011416 ], [ 23.623545924201608, 46.763251014053822 ], [ 23.623534692451358, 46.7632279638201 ], [ 23.623527232557535, 46.763199884444475 ], [ 23.623512145131826, 46.763177588582039 ], [ 23.623506026342511, 46.763155795633793 ], [ 23.623494626954198, 46.763125201687217 ], [ 23.623483143746853, 46.763100642710924 ], [ 23.623476857319474, 46.763079101219773 ], [ 23.623468056321144, 46.763050518929958 ], [ 23.623463613912463, 46.763028390705585 ], [ 23.623459758237004, 46.763001484796405 ], [ 23.623452046886086, 46.762975500896573 ], [ 23.623442742973566, 46.762949768453836 ], [ 23.62343461252749, 46.762925880029798 ], [ 23.623426565900445, 46.762903332710266 ], [ 23.623419106006622, 46.762881288304925 ], [ 23.623413238674402, 46.762856729328632 ], [ 23.623403934761882, 46.762829488143325 ], [ 23.623399240896106, 46.762804174795747 ], [ 23.623387003317475, 46.762778107076883 ], [ 23.623371915891767, 46.762752877548337 ], [ 23.623355906456709, 46.762728905305266 ], [ 23.623323887586594, 46.762709291651845 ], [ 23.623297400772572, 46.762692779302597 ], [ 23.623270662501454, 46.762672159820795 ], [ 23.623246774077415, 46.762652462348342 ], [ 23.623226657509804, 46.762629998847842 ], [ 23.623204110190272, 46.762607200071216 ], [ 23.623180137947202, 46.762583060190082 ], [ 23.623157003894448, 46.762558501213789 ], [ 23.623121464625001, 46.762540144845843 ], [ 23.623089110478759, 46.762523883953691 ], [ 23.623057259246707, 46.76251164637506 ], [ 23.623025575652719, 46.762496810406446 ], [ 23.622995484620333, 46.762481890618801 ], [ 23.622967656701803, 46.762467306107283 ], [ 23.622934632003307, 46.762453895062208 ], [ 23.622903283685446, 46.762441573664546 ], [ 23.622871600091457, 46.762426905333996 ], [ 23.62283363007009, 46.762413494288921 ], [ 23.622799012809992, 46.762402262538671 ], [ 23.62275936640799, 46.762389941141009 ], [ 23.622719971463084, 46.762381726875901 ], [ 23.622682252898812, 46.762372925877571 ], [ 23.622641265392303, 46.762361358851194 ], [ 23.622600110247731, 46.762354066595435 ], [ 23.622567085549235, 46.762343589216471 ], [ 23.622530372813344, 46.762334033846855 ], [ 23.622489050030708, 46.762324227020144 ], [ 23.622451247647405, 46.762315342202783 ], [ 23.622410176321864, 46.762304110452533 ], [ 23.6223737988621, 46.762293297797441 ], [ 23.622343875467777, 46.762280222028494 ], [ 23.622306073084474, 46.762266140431166 ], [ 23.622265756130219, 46.762255327776074 ], [ 23.62223063595593, 46.762244431301951 ], [ 23.622192163020372, 46.762232864275575 ], [ 23.622155953198671, 46.762220961973071 ], [ 23.622122257947922, 46.762209730222821 ], [ 23.622084455564618, 46.762199923396111 ], [ 23.62205327488482, 46.76219061948359 ], [ 23.622019160538912, 46.762182069942355 ], [ 23.621985884383321, 46.762169497087598 ], [ 23.621949171647429, 46.762161618098617 ], [ 23.621908267959952, 46.762154828757048 ], [ 23.621865436434746, 46.762148793786764 ], [ 23.621831573545933, 46.762139741331339 ], [ 23.621794274076819, 46.762131191790104 ], [ 23.621762925758958, 46.762121468782425 ], [ 23.621732415631413, 46.762108728289604 ], [ 23.621695870533586, 46.762101100757718 ], [ 23.621661253273487, 46.762093640863895 ], [ 23.621622612699866, 46.762088695541024 ], [ 23.621581289917231, 46.762080732733011 ], [ 23.621541559696198, 46.762071680277586 ], [ 23.621499733999372, 46.762065729126334 ], [ 23.621458662673831, 46.7620640527457 ], [ 23.621420441195369, 46.762060197070241 ], [ 23.621383812278509, 46.762058772146702 ], [ 23.621348608285189, 46.762057347223163 ], [ 23.621314913034439, 46.762056844308972 ], [ 23.621278367936611, 46.762056509032845 ], [ 23.62123821862042, 46.762058353051543 ], [ 23.621205780655146, 46.762057850137353 ], [ 23.621169989928603, 46.762054162099957 ], [ 23.621132355183363, 46.762049049139023 ], [ 23.621092457324266, 46.762042175978422 ], [ 23.62105306237936, 46.762033542618155 ], [ 23.621008889749646, 46.762025495991111 ], [ 23.620965639129281, 46.762018371373415 ], [ 23.620919957756996, 46.762008816003799 ], [ 23.620872600004077, 46.76200102083385 ], [ 23.620827505365014, 46.76199221983552 ], [ 23.620784841477871, 46.761982832103968 ], [ 23.620743853971362, 46.761973612010479 ], [ 23.620701273903251, 46.7619638890028 ], [ 23.620660621672869, 46.761959195137024 ], [ 23.620617035776377, 46.761953914538026 ], [ 23.620572946965694, 46.761948801577091 ], [ 23.620530785992742, 46.761940838769078 ], [ 23.620488122105598, 46.761931534856558 ], [ 23.620444117113948, 46.761924745514989 ], [ 23.620403129607439, 46.761918710544705 ], [ 23.620361220091581, 46.761909574270248 ], [ 23.620320232585073, 46.761903371661901 ], [ 23.620280586183071, 46.761893481016159 ], [ 23.620232054963708, 46.761884177103639 ], [ 23.62018427811563, 46.761880991980433 ], [ 23.620139099657536, 46.761878645047545 ], [ 23.620097106322646, 46.761877220124006 ], [ 23.620053771883249, 46.761865988373756 ], [ 23.620007839053869, 46.761853666976094 ], [ 23.619964839890599, 46.761841597035527 ], [ 23.619919996708632, 46.761832628399134 ], [ 23.619878422468901, 46.76182072609663 ], [ 23.619830813258886, 46.761816199868917 ], [ 23.619782198220491, 46.761812847107649 ], [ 23.619736097753048, 46.761804884299636 ], [ 23.619693014770746, 46.761798597872257 ], [ 23.619648003950715, 46.761792143806815 ], [ 23.619597377255559, 46.761784264817834 ], [ 23.619550857692957, 46.761774877086282 ], [ 23.619505595415831, 46.761767417192459 ], [ 23.619458321481943, 46.761758364737034 ], [ 23.619412137195468, 46.761750234290957 ], [ 23.619369640946388, 46.761745037510991 ], [ 23.61932429485023, 46.761737326160073 ], [ 23.61928372643888, 46.761730872094631 ], [ 23.619235027581453, 46.761726513504982 ], [ 23.619196889922023, 46.761722322553396 ], [ 23.619153471663594, 46.761716539040208 ], [ 23.619114244356751, 46.761711509898305 ], [ 23.619071915745735, 46.761703882366419 ], [ 23.619032520800829, 46.761695835739374 ], [ 23.618993880227208, 46.761687286198139 ], [ 23.618952557444572, 46.761678149923682 ], [ 23.618913413956761, 46.761669181287289 ], [ 23.618870750069618, 46.761661637574434 ], [ 23.618832193315029, 46.761654932051897 ], [ 23.618788775056601, 46.761643281206489 ], [ 23.618741920217872, 46.761635653674603 ], [ 23.618699004873633, 46.76162475720048 ], [ 23.618651730939746, 46.761613022536039 ], [ 23.618606636300683, 46.761603718623519 ], [ 23.618558859452605, 46.761596174910665 ], [ 23.61850680783391, 46.761586284264922 ], [ 23.618465233594179, 46.761579997837543 ], [ 23.618421480059624, 46.76157345995307 ], [ 23.618377558887005, 46.761567341163754 ], [ 23.618329698219895, 46.761559378355742 ], [ 23.61828401684761, 46.761548481881618 ], [ 23.618237832561135, 46.761538339778781 ], [ 23.618193408474326, 46.761532220989466 ], [ 23.61815107986331, 46.761532723903656 ], [ 23.618111768737435, 46.761526437476277 ], [ 23.618071284145117, 46.76152216270566 ], [ 23.618027279153466, 46.761517468839884 ], [ 23.617986375465989, 46.761507075279951 ], [ 23.617943795397878, 46.761495843529701 ], [ 23.617901969701052, 46.761489640921354 ], [ 23.61786232329905, 46.76148260012269 ], [ 23.617820497602224, 46.761473547667265 ], [ 23.617781437933445, 46.761465668678284 ], [ 23.61773525364697, 46.761456951498985 ], [ 23.617696361616254, 46.761445719748735 ], [ 23.617658307775855, 46.761436415836215 ], [ 23.61762385815382, 46.761427195742726 ], [ 23.617588737979531, 46.761420071125031 ], [ 23.617550516501069, 46.761415880173445 ], [ 23.617512965574861, 46.761406408622861 ], [ 23.617471475154161, 46.761400876566768 ], [ 23.617428811267018, 46.761397020891309 ], [ 23.617387069389224, 46.761390399187803 ], [ 23.617343734949827, 46.761385705322027 ], [ 23.617300903424621, 46.761380592361093 ], [ 23.617252372205257, 46.761374389752746 ], [ 23.617209959775209, 46.761369025334716 ], [ 23.617165451869369, 46.761360894888639 ], [ 23.61711666919291, 46.761354776099324 ], [ 23.617064952850342, 46.761347819119692 ], [ 23.617021953687072, 46.761339688673615 ], [ 23.616975266486406, 46.761335162445903 ], [ 23.616931010037661, 46.761327618733048 ], [ 23.616887759417295, 46.761322421953082 ], [ 23.616847610101104, 46.761312866583467 ], [ 23.6168098077178, 46.761304400861263 ], [ 23.616766892373562, 46.761299539357424 ], [ 23.616728587076068, 46.761297611519694 ], [ 23.616692461073399, 46.761291911825538 ], [ 23.616653149947524, 46.761287469416857 ], [ 23.616613587364554, 46.76127933897078 ], [ 23.616571426391602, 46.761275734752417 ], [ 23.616529097780585, 46.761269113048911 ], [ 23.61648878082633, 46.761260312050581 ], [ 23.616446452215314, 46.761256875470281 ], [ 23.616409488022327, 46.761248325929046 ], [ 23.616370931267738, 46.761236675083637 ], [ 23.616332709789276, 46.761230640113354 ], [ 23.616291638463736, 46.761225862428546 ], [ 23.616250902414322, 46.761220498010516 ], [ 23.616204131394625, 46.761213708668947 ], [ 23.616165155544877, 46.761204237118363 ], [ 23.616120647639036, 46.761198788881302 ], [ 23.616078570485115, 46.761191245168447 ], [ 23.616044707596302, 46.761188143864274 ], [ 23.616007659584284, 46.761183449998498 ], [ 23.615971114486456, 46.761179259046912 ], [ 23.615929959341884, 46.761176493018866 ], [ 23.615888468921185, 46.761175151914358 ], [ 23.615849325433373, 46.761174313724041 ], [ 23.615808002650738, 46.761172972619534 ], [ 23.61577095463872, 46.761172972619534 ], [ 23.615726782009006, 46.761175822466612 ], [ 23.615685123950243, 46.761178253218532 ], [ 23.615648578852415, 46.761180181056261 ], [ 23.615614715963602, 46.761184120550752 ], [ 23.615585044026375, 46.761187054216862 ], [ 23.615565346553922, 46.761190574616194 ], [ 23.615572554990649, 46.761192418634892 ], [ 23.615581523627043, 46.761191412806511 ], [ 23.61559459939599, 46.761190239340067 ], [ 23.615608932450414, 46.76118990406394 ], [ 23.615626618266106, 46.761189820244908 ], [ 23.615654278546572, 46.761188562959433 ], [ 23.615675149485469, 46.761187221854925 ], [ 23.615695517510176, 46.761186048388481 ], [ 23.615718064829707, 46.761185210198164 ], [ 23.615736002102494, 46.761187138035893 ], [ 23.61575536429882, 46.761188730597496 ], [ 23.615774726495147, 46.761190658435225 ], [ 23.615792831405997, 46.761198621243238 ], [ 23.615813199430704, 46.761202896013856 ], [ 23.615832226350904, 46.761205745860934 ], [ 23.615851504728198, 46.761211194097996 ], [ 23.615870364010334, 46.761219576001167 ], [ 23.615893917158246, 46.761225946247578 ], [ 23.615924343466759, 46.761228879913688 ], [ 23.615962145850062, 46.761230807751417 ], [ 23.61599869094789, 46.761234495788813 ], [ 23.616033308207989, 46.761234579607844 ], [ 23.616069015115499, 46.761237345635891 ], [ 23.616102961823344, 46.761240782216191 ], [ 23.616137830540538, 46.761247739195824 ], [ 23.61617797985673, 46.761251175776124 ], [ 23.616222152486444, 46.7612524330616 ], [ 23.61625911667943, 46.761257043108344 ], [ 23.616299936547875, 46.761264083907008 ], [ 23.616342348977923, 46.761269699782133 ], [ 23.616377804428339, 46.761276321485639 ], [ 23.616410996764898, 46.76128369756043 ], [ 23.616444608196616, 46.761288810521364 ], [ 23.616476878523827, 46.76129836589098 ], [ 23.61651174724102, 46.761305490508676 ], [ 23.616542425006628, 46.761311441659927 ], [ 23.616575449705124, 46.761317644268274 ], [ 23.616607720032334, 46.761324182152748 ], [ 23.616645270958543, 46.761327367275953 ], [ 23.616680977866054, 46.761337090283632 ], [ 23.616721127182245, 46.761343879625201 ], [ 23.61676094122231, 46.761349579319358 ], [ 23.616797486320138, 46.761351339519024 ], [ 23.61683327704668, 46.761354776099324 ], [ 23.616872085258365, 46.761358631774783 ], [ 23.616906199604273, 46.761361565440893 ], [ 23.616940900683403, 46.761366594582796 ], [ 23.616976859048009, 46.761367935687304 ], [ 23.617009883746505, 46.76136827096343 ], [ 23.617039639502764, 46.761371120810509 ], [ 23.617069059982896, 46.761374305933714 ], [ 23.617095379158854, 46.761377826333046 ], [ 23.6171171721071, 46.761378580704331 ], [ 23.617136031389236, 46.761376149952412 ], [ 23.617155142128468, 46.76137656904757 ], [ 23.61717140302062, 46.761379670351744 ], [ 23.617175845429301, 46.761383861303329 ], [ 23.617168553173542, 46.761392913758755 ], [ 23.617157572880387, 46.761395679786801 ], [ 23.617152962833643, 46.761387046426535 ], [ 23.617143826559186, 46.761378748342395 ], [ 23.617126056924462, 46.761374725028872 ], [ 23.617109544575214, 46.761373300105333 ], [ 23.61709957011044, 46.761371539905667 ], [ 23.617085237056017, 46.761367935687304 ], [ 23.617060594260693, 46.761365672573447 ], [ 23.617035364732146, 46.761364415287971 ], [ 23.617012146860361, 46.761360224336386 ], [ 23.616991275921464, 46.761355614289641 ], [ 23.616957664489746, 46.761348992586136 ], [ 23.616906870156527, 46.761337174102664 ], [ 23.616856411099434, 46.761325439438224 ], [ 23.616811903193593, 46.761317057535052 ], [ 23.616764796897769, 46.761307921260595 ], [ 23.616721881553531, 46.761297527700663 ], [ 23.616677708923817, 46.761287972331047 ], [ 23.616633620113134, 46.76128369756043 ], [ 23.616587603464723, 46.761278668418527 ], [ 23.616542005911469, 46.76127296872437 ], [ 23.616496659815311, 46.761265927925706 ], [ 23.616453493013978, 46.761256707832217 ], [ 23.616408566012979, 46.76124949939549 ], [ 23.616365902125835, 46.76123877055943 ], [ 23.616326926276088, 46.761230221018195 ], [ 23.616281077265739, 46.761218151077628 ], [ 23.616239754483104, 46.761211948469281 ], [ 23.61619608476758, 46.761208176612854 ], [ 23.616151493042707, 46.761203734204173 ], [ 23.616104638203979, 46.761198285967112 ], [ 23.616057364270091, 46.761197196319699 ], [ 23.616015622392297, 46.761193759739399 ], [ 23.615971952676773, 46.761188898235559 ], [ 23.615930043160915, 46.761183198541403 ], [ 23.615887546911836, 46.761179594323039 ], [ 23.615846307948232, 46.761177331209183 ], [ 23.615798950195312, 46.761175990104675 ], [ 23.615752011537552, 46.761178504675627 ], [ 23.615710604935884, 46.761179007589817 ], [ 23.615666767582297, 46.761186802759767 ], [ 23.615630893036723, 46.761195184662938 ], [ 23.6155975330621, 46.761194178834558 ], [ 23.61555889248848, 46.761190239340067 ], [ 23.615525783970952, 46.761189736425877 ], [ 23.615486975759268, 46.761182276532054 ], [ 23.615457890555263, 46.761169284582138 ], [ 23.615435510873795, 46.761156963184476 ], [ 23.615414639934897, 46.761144390329719 ], [ 23.615393852815032, 46.761128632351756 ], [ 23.615380190312862, 46.761112874373794 ], [ 23.615391841158271, 46.76109560765326 ], [ 23.615423273295164, 46.76106384024024 ], [ 23.615446658805013, 46.761026792228222 ], [ 23.615454956889153, 46.760984128341079 ], [ 23.615460824221373, 46.760940793901682 ], [ 23.615464512258768, 46.760898046195507 ], [ 23.615468367934227, 46.76086007617414 ], [ 23.615466607734561, 46.760818334296346 ], [ 23.615465015172958, 46.760782962664962 ], [ 23.615466775372624, 46.760748848319054 ], [ 23.615468116477132, 46.760714733973145 ], [ 23.615471301600337, 46.760680619627237 ], [ 23.61547289416194, 46.760647008195519 ], [ 23.615475576370955, 46.760611888021231 ], [ 23.615487227216363, 46.760579952970147 ], [ 23.615495944395661, 46.760548520833254 ], [ 23.615505415946245, 46.760521698743105 ], [ 23.615515809506178, 46.760491272434592 ], [ 23.615530310198665, 46.760458331555128 ], [ 23.6155422963202, 46.760426815599203 ], [ 23.615549001842737, 46.760395132005215 ], [ 23.615553779527545, 46.760365292429924 ], [ 23.615558808669448, 46.760337967425585 ], [ 23.615558724850416, 46.760309217497706 ], [ 23.615558389574289, 46.760281138122082 ], [ 23.615554952993989, 46.760250208899379 ], [ 23.615552941337228, 46.7602180223912 ], [ 23.61555059440434, 46.760185919702053 ], [ 23.615540619939566, 46.760153900831938 ], [ 23.615534333512187, 46.760119367390871 ], [ 23.615531818941236, 46.760091204196215 ], [ 23.615524861961603, 46.760057508945465 ], [ 23.6154870595783, 46.760033033788204 ], [ 23.615447329357266, 46.760015683248639 ], [ 23.615407096222043, 46.760002104565501 ], [ 23.615370886400342, 46.75998592749238 ], [ 23.615334928035736, 46.75996882840991 ], [ 23.615304501727223, 46.759955417364836 ], [ 23.615274075418711, 46.759938318282366 ], [ 23.615241972729564, 46.759920883923769 ], [ 23.615214480087161, 46.75990185700357 ], [ 23.615190424025059, 46.759884171187878 ], [ 23.615160919725895, 46.759863635525107 ], [ 23.615136528387666, 46.759838489815593 ], [ 23.615103336051106, 46.759801357984543 ], [ 23.615116663277149, 46.759789623320103 ], [ 23.615124458447099, 46.759764896705747 ], [ 23.615144658833742, 46.759750731289387 ], [ 23.615157483145595, 46.759738996624947 ], [ 23.615149771794677, 46.759721478447318 ], [ 23.615146838128567, 46.759712090715766 ], [ 23.615155136212707, 46.759709073230624 ], [ 23.615162512287498, 46.759697003290057 ], [ 23.615183802321553, 46.75968149676919 ] ] ] } }
]
}
